iso2cd,iso3cd,ROMNAM,lng,lat,ADM0_CODE,FAONAM,STDNM,WBDATAURL,WBNAM,CPDBNM,IFADURL,CAFBANKURL,CABEIURL,IADBURL,ADBURL,CARIBANKURL,AIIBNM,OWIDNM,IEAURL,NDCNM,NCNM,NAMANM,NAPNM,BURNM,CBDNM,INFORMNM,CRINM,GCFNM,GEFNM,AFNM,EBRDNM,CCDRURL,NZTrackerCode,NZTrackerName,EJNM,EJURL,WBDOINGBIZ,TIMBER,WBPOP2023,WBPOPURB2023,WBPOPG2023,WBPOPURBG2023,FAOGHGNM,CIFURL,OECDNM,IMFNM,IFCNM,WBPOP2050,GTSURL,FAOSTAT_AREA,FAOSTAT_M49,RICE4AFRICA,m49cd,NSOURL,TMFURL,WFPLCAurl,CONTCD,LLC,PortsInfo
AF,AFG,Afghanistan,65.20419911,33.9355,1,Afghanistan,Afghanistan,https://data.worldbank.org/country/afghanistan?view=chart,Afghanistan,Afghanistan,https://www.ifad.org/en/web/operations/w/country/afghanistan,,,,https://www.adb.org/projects/country/afg,,,Afghanistan,,Afghanistan,Afghanistan,,,Afghanistan,Afghanistan,Afghanistan,Islamic Republic of Afghanistan,Afghanistan,Afghanistan,,,,COU-0001,Afghanistan,Afghanistan,https://ejatlas.org/country/afghanistan,https://archive.doingbusiness.org/en/data/exploreeconomies/afghanistan,,42239854,11376460,2.665628202,3.849602621,Afghanistan,,Afghanistan,Afghanistan,Afghanistan,74075234,,2,'004,,4,,,https://lca.logcluster.org/afghanistan,ASI,1,
AL,ALB,Albania,20.02511017,41.152464,3,Albania,Albania,https://data.worldbank.org/country/albania?view=chart,Albania,Albania,https://www.ifad.org/en/web/operations/w/country/albania,,,,,,,Albania,https://www.iea.org/countries/albania,Albania,Albania,,Albania​,Albania,Albania,Albania,Albania,Albania,Albania,,ALBANIA,,COU-0120,Albania,Albania,https://ejatlas.org/country/albania,https://archive.doingbusiness.org/en/data/exploreeconomies/albania,,2745972,1773980,-1.148417638,0.103888261,Albania,,Albania,Albania,Albania,2377598,https://techselector.com/albania-en/,3,'008,,8,http://www.instat.gov.al/,,,EUR,,europe
DZ,DZA,Algeria,0.626100227,28.02279366,4,Algeria,Algeria,https://data.worldbank.org/country/algeria?view=chart,Algeria,Algeria,https://www.ifad.org/en/web/operations/w/country/algeria,,,,,,,Algeria,https://www.iea.org/countries/algeria,Algeria,Algeria,,,Algeria,Algeria,Algeria,Algeria,Algeria,Algeria,,,,COU-0139,Algeria,Algeria,https://ejatlas.org/country/algeria,https://archive.doingbusiness.org/en/data/exploreeconomies/algeria,,45606480,34327085,1.554019324,2.215178872,Algeria,https://www.cif.org/country/algeria,Algeria,Algeria,,60001113,,4,'012,,12,http://www.ons.dz,,https://lca.logcluster.org/algeria,AFR,,africa
AD,AND,Andorra,1.58942005,42.5421975,7,Andorra,Andorra,https://data.worldbank.org/country/andorra?view=chart,Andorra,Andorra,,,,,,,,Andorra,,Andorra,Andorra,,,Andorra,Andorra,,,Andorra,,,,,COU-0121,Andorra,,,,,80088,70296,0.3301819,0.287769983,Andorra,,,,,80504,,,020,,20,http://www.estadistica.ad,,,EUR,,europe
AO,AGO,Angola,18.87483314,-11.93778123,8,Angola,Angola,https://data.worldbank.org/country/angola?view=chart,Angola,Angola,https://www.ifad.org/en/web/operations/w/country/angola,,,,,,,Angola,https://www.iea.org/countries/angola,Angola,Angola,,,Angola,Angola,Angola,Angola,Angola,Angola,,,https://openknowledge.worldbank.org/handle/10986/38361,COU-0002,Angola,Angola,https://ejatlas.org/country/angola,https://archive.doingbusiness.org/en/data/exploreeconomies/angola,,36684202,25197645,3.03099631,3.918632482,Angola,,Angola,Angola,Angola,72328068,,7,'024,https://riceforafrica.net/country_site/angola/,24,https://www.ine.gov.ao/,https://forobs.jrc.ec.europa.eu/static/tmf/factsheets/Angola.pdf,https://lca.logcluster.org/angola,AFR,,africa
AG,ATG,Antigua and Barbuda,-61.80054777,17.08487892,11,Antigua and Barbuda,Antigua,https://data.worldbank.org/country/antigua-and-barbuda?view=chart,Antigua and Barbuda,Antigua and Barbuda,,,,,,https://www.caribank.org/countries-and-members/borrowing-members/antigua-and-barbuda,,Antigua and Barbuda,,Antigua and Barbuda,Antigua and Barbuda,,,Antigua and Barbuda,Antigua and Barbuda,Antigua and Barbuda,Antigua and Barbuda,Antigua and Barbuda,Antigua And Barbuda,Antigua and Barbuda,,,COU-0005,Antigua and Barbuda,Antigua and Barbuda,https://ejatlas.org/country/antigua-and-barbuda,https://archive.doingbusiness.org/en/data/exploreeconomies/antigua-and-barbuda,,94298,22945,0.56896586,0.511219517,Antigua and Barbuda,,Antigua and Barbuda,Antigua and Barbuda,Antigua and Barbuda,99030,,8,'028,,28,,,,AME,,north-america
AR,ARG,Argentina,-63.96759118,-37.08063974,12,Argentina,Argentina,https://data.worldbank.org/country/argentina?view=chart,Argentina,Argentina,https://www.ifad.org/en/web/operations/w/country/argentina,https://www.caf.com/en/countries/argentina/,https://www.bcie.org/en/member-countries/non-regional/republic-of-argentina,https://www.iadb.org/en/countries/argentina/overview,,,,Argentina,https://www.iea.org/countries/argentina,Argentina,Argentina,,,Argentina,Argentina,Argentina,Argentina,Argentina,Argentina,Argentina,,https://openknowledge.worldbank.org/handle/10986/38252,COU-0003,Argentina,Argentina,https://ejatlas.org/country/argentina,https://archive.doingbusiness.org/en/data/exploreeconomies/argentina,,46654581,43138225,0.903771167,1.029306061,Argentina,,Argentina,Argentina,Argentina,52288896,,9,'032,,32, https://www.indec.gob.ar/,,https://lca.logcluster.org/argentina-limited-port-assessment,AME,,south-america
AM,ARM,Armenia,44.84524853,40.0713505,13,Armenia,Armenia,https://data.worldbank.org/country/armenia?view=chart,Armenia,Armenia,https://www.ifad.org/en/web/operations/w/country/armenia,,,,https://www.adb.org/projects/country/arm,,,Armenia,https://www.iea.org/countries/armenia,Armenia,Armenia,Armenia,​Armenia,Armenia,Armenia,Armenia,Armenia,Armenia,Armenia,Armenia,ARMENIA,,COU-0004,Armenia,Armenia,https://ejatlas.org/country/armenia,https://archive.doingbusiness.org/en/data/exploreeconomies/armenia,,2777970,1770650,-0.089917337,0.170817597,Armenia,https://www.cif.org/country/armenia,Armenia,Armenia,Armenia,2573465,https://techselector.com/armenia-en/,1,'051,,51,http://www.armstat.am,,https://lca.logcluster.org/armenia,ASI,1,
AU,AUS,Australia,133.0793411,-24.91789532,17,Australia,Australia,https://data.worldbank.org/country/australia?view=chart,Australia,Australia,,,,,,,,Australia,https://www.iea.org/countries/australia,Australia,,,,,Australia,Australia,Australia,,,,,,COU-0123,Australia,Australia,https://ejatlas.org/country/australia,https://archive.doingbusiness.org/en/data/exploreeconomies/australia,,26638544,23073508,2.370899711,2.519945525,Australia,,,Australia,Australia,31798006,,10,'036,,36,http://www.abs.gov.au/,https://forobs.jrc.ec.europa.eu/static/tmf/factsheets/Australia.pdf,,OCE,,oceania
AT,AUT,Austria,14.75462582,47.69642779,18,Austria,Austria,https://data.worldbank.org/country/austria?view=chart,Austria,Austria,,,,,,,,Austria,https://www.iea.org/countries/austria,Austria,,,,,Austria,Austria,Austria,,,,,,COU-0006,Austria,Austria,https://ejatlas.org/country/austria,https://archive.doingbusiness.org/en/data/exploreeconomies/austria,,9132383,5436508,0.996275814,1.457622084,Austria,,,Austria,Austria,8930681,,11,'040,,40,http://www.statistik.at,,,EUR,,europe
AZ,AZE,Azerbaijan,48.57520491,40.48740071,19,Azerbaijan,Azerbaijan,https://data.worldbank.org/country/azerbaijan?view=chart,Azerbaijan,Azerbaijan,https://www.ifad.org/en/web/operations/w/country/azerbaijan,,,,https://www.adb.org/projects/country/aze,,Azerbaijan,Azerbaijan,https://www.iea.org/countries/azerbaijan,Azerbaijan,Azerbaijan,Azerbaijan,,Azerbaijan,Azerbaijan,Azerbaijan,Azerbaijan,Azerbaijan,Azerbaijan,,AZERBAIJAN,https://openknowledge.worldbank.org/entities/publication/8dd535d5-126a-4181-8ffe-c0fa49b2599f,COU-0124,Azerbaijan,,,https://archive.doingbusiness.org/en/data/exploreeconomies/azerbaijan,,10112555,5822506,-0.288343753,0.421047891,Azerbaijan,,Azerbaijan,Azerbaijan,Azerbaijan,10621822,https://techselector.com/azerbaijan-en/,52,'031,,31,https://www.stat.gov.az/?lang=en,,https://lca.logcluster.org/azerbaijan,ASI,1,
BS,BHS,Bahamas,-78.32054948,26.65301705,20,Bahamas,Bahamas,https://data.worldbank.org/country/bahamas-the?view=chart,"Bahamas, The",Bahamas,,,,https://www.iadb.org/en/countries/bahamas/overview,,https://www.caribank.org/countries-and-members/borrowing-members/bahamas,,Bahamas,,Bahamas,Bahamas,,,Bahamas,Bahamas,Bahamas,The Bahamas,Bahamas,Bahamas,,,,COU-0011,The Bahamas,"Bahamas, The",https://ejatlas.org/country/bahamas-the,https://archive.doingbusiness.org/en/data/exploreeconomies/bahamas,,412623,345056,0.64162086,0.800749158,Bahamas,,,"Bahamas, The",Bahamas,450625,,12,'044,,44,http://statistics.bahamas.gov.bs/,,,AME,,north-america
BH,BHR,Bahrain,50.55589855,26.01522064,21,Bahrain,Bahrain,https://data.worldbank.org/country/bahrain?view=chart,Bahrain,Bahrain,,,,,,,,Bahrain,https://www.iea.org/countries/bahrain,Bahrain,Bahrain,,,Bahrain,Bahrain,Bahrain,Bahrain,Bahrain,Bahrain,,,,COU-0127,Bahrain,Bahrain,https://ejatlas.org/country/bahrain,https://archive.doingbusiness.org/en/data/exploreeconomies/bahrain,,1485509,1335012,0.897717864,1.038018716,Bahrain,,Bahrain,Bahrain,,1809237,,13,'048,,48,http://www.cio.gov.bh/,,,ASI,,asia
BD,BGD,Bangladesh,89.87016271,23.69327407,23,Bangladesh,Bangladesh,https://data.worldbank.org/country/bangladesh?view=chart,Bangladesh,Bangladesh,https://www.ifad.org/en/web/operations/w/country/bangladesh,,,,https://www.adb.org/projects/country/ban,,Bangladesh,Bangladesh,https://www.iea.org/countries/bangladesh,Bangladesh,Bangladesh,Bangladesh,,Bangladesh,Bangladesh,Bangladesh,Bangladesh,Bangladesh,Bangladesh,Bangladesh,,https://openknowledge.worldbank.org/handle/10986/38181,COU-0010,Bangladesh,Bangladesh,https://ejatlas.org/country/bangladesh,https://archive.doingbusiness.org/en/data/exploreeconomies/bangladesh,,172954319,69999802,1.027464987,2.928151705,Bangladesh,https://www.cif.org/country/bangladesh,Bangladesh,Bangladesh,Bangladesh,203904900,,16,'050,,50,http://www.bbs.gov.bd/,https://forobs.jrc.ec.europa.eu/static/tmf/factsheets/Bangladesh.pdf,https://lca.logcluster.org/bangladesh,ASI,,asia
BB,BRB,Barbados,-59.56006221,13.18690157,24,Barbados,Barbados,https://data.worldbank.org/country/barbados?view=chart,Barbados,Barbados,,https://www.caf.com/en/countries/barbados/,,https://www.iadb.org/en/countries/barbados/overview,,https://www.caribank.org/countries-and-members/borrowing-members/barbados,,Barbados,,Barbados,Barbados,,,Barbados,Barbados,Barbados,Barbados,Barbados,Barbados,,,,COU-0013,Barbados,,,https://archive.doingbusiness.org/en/data/exploreeconomies/barbados,,281995,88617,0.127743395,0.450135348,Barbados,,Barbados,Barbados,Barbados,267788,,14,'052,,52,http://www.barstats.gov.bb/,,,AME,,north-america
BY,BLR,Belarus,28.03307921,53.717314,26,Belarus,Belarus,https://data.worldbank.org/country/belarus?view=chart,Belarus,Belarus,,,,,,,Belarus,Belarus,https://www.iea.org/countries/belarus,Belarus,,,,,Belarus,Belarus,Belarus,,Belarus,,BELARUS,,COU-0129,Belarus,Belarus,https://ejatlas.org/country/belarus,https://archive.doingbusiness.org/en/data/exploreeconomies/belarus,,9178298,7409732,-0.540824986,-0.037888929,Belarus,,Belarus,Belarus,,8125076,https://techselector.com/belarus-en/,57,'112,,112,http://belstat.gov.by,,,EUR,,europe
BE,BEL,Belgium,4.861070877,50.50173825,27,Belgium,Belgium,https://data.worldbank.org/country/belgium?view=chart,Belgium,Belgium,,,,,,,,Belgium,https://www.iea.org/countries/belgium,Belgium,,,,,Belgium,Belgium,Belgium,,,,,,COU-0007,Belgium,Belgium,https://ejatlas.org/country/belgium,https://archive.doingbusiness.org/en/data/exploreeconomies/belgium,,11822592,11608485,1.163664975,1.200337033,Belgium,,,Belgium,Belgium,12029329,,255,'056,,56,http://www.statbel.fgov.be/,,,EUR,,europe
BZ,BLZ,Belize,-88.72731077,17.19201967,28,Belize,Belize,https://data.worldbank.org/country/belize?view=chart,Belize,Belize,https://www.ifad.org/en/web/operations/w/country/belize,,https://www.bcie.org/en/member-countries/regional-non-founding-members/belize,https://www.iadb.org/en/countries/belize/overview,,https://www.caribank.org/countries-and-members/borrowing-members/belize,,Belize,,Belize,Belize,,,Belize,Belize,Belize,Belize,Belize,Belize,Belize,,,COU-0012,Belize,Belize,https://ejatlas.org/country/belize,https://archive.doingbusiness.org/en/data/exploreeconomies/belize,,410825,191477,1.360888645,1.81661724,Belize,,Belize,Belize,Belize,538838,,23,'084,,84,http://sib.org.bz/,https://forobs.jrc.ec.europa.eu/static/tmf/factsheets/Belize.pdf,https://lca.logcluster.org/belize,AME,,north-america
BJ,BEN,Benin,2.280994508,9.330365,29,Benin,Benin,https://data.worldbank.org/country/benin?view=chart,Benin,Benin,https://www.ifad.org/en/web/operations/w/country/benin,,,,,,,Benin,https://www.iea.org/countries/benin,Benin,Benin,,​Benin,Benin,Benin,Benin,Benin,Benin,Benin,,,https://openknowledge.worldbank.org/entities/publication/ba015196-1772-44ad-9a83-846e57e37078,COU-0008,Benin,Benin,https://ejatlas.org/country/benin,https://archive.doingbusiness.org/en/data/exploreeconomies/benin,,13712828,6870127,2.660085142,3.796252973,Benin,,Benin,Benin,,25264035,,53,'204,https://riceforafrica.net/country_site/benin/,204,http://www.insae-bj.org/,,https://lca.logcluster.org/benin,AFR,,africa
BT,BTN,Bhutan,90.35426935,27.474506,31,Bhutan,Bhutan,https://data.worldbank.org/country/bhutan?view=chart,Bhutan,Bhutan,https://www.ifad.org/en/web/operations/w/country/bhutan,,,,https://www.adb.org/projects/country/bhu,,,Bhutan,,Bhutan,Bhutan,,Bhutan,Bhutan,Bhutan,Bhutan,Bhutan,Bhutan,Bhutan,Bhutan,,,COU-0014,Bhutan,Bhutan,https://ejatlas.org/country/bhutan,https://archive.doingbusiness.org/en/data/exploreeconomies/bhutan,,787424,349223,0.633044533,2.14176274,Bhutan,https://www.cif.org/country/bhutan,Bhutan,Bhutan,,874294,,18,'064,,64,http://www.nsb.gov.bt,https://forobs.jrc.ec.europa.eu/static/tmf/factsheets/Bhutan.pdf,https://lca.logcluster.org/bhutan,ASI,1,
BO,BOL,Bolivia (Plurinational State of),-64.0039324,-16.29277677,33,Bolivia,Bolivia,https://data.worldbank.org/country/bolivia?view=chart,Bolivia,"Bolivia, Plurinational State of",https://www.ifad.org/en/web/operations/w/country/bolivia,https://www.caf.com/en/countries/bolivia/,,https://www.iadb.org/en/countries/bolivia/overview,,,,Bolivia,https://www.iea.org/countries/bolivia,Bolivia (Plurinational State of),Bolivia,,,Bolivia,Bolivia (Plurinational State of),Bolivia,Bolivia,Bolivia (Plurinational State of),Bolivia,,,,COU-0131,Bolivia,Bolivia,https://ejatlas.org/country/bolivia,https://archive.doingbusiness.org/en/data/exploreeconomies/bolivia,,12388571,8818928,1.336412297,1.837764888,Bolivia (Plurinational State of),https://www.cif.org/country/bolivia,Bolivia,Bolivia,Bolivia,16609854,,19,'068,,68,http://www.ine.gob.bo/,https://forobs.jrc.ec.europa.eu/static/tmf/factsheets/Bolivia.pdf,https://lca.logcluster.org/bolivia,AME,1,
BA,BIH,Bosnia and Herzegovina,17.95278413,43.91658877,34,Bosnia and Herzegovina,Bosnia,https://data.worldbank.org/country/bosnia-and-herzegovina?view=chart,Bosnia and Herzegovina,Bosnia and Herzegovina,https://www.ifad.org/en/web/operations/w/country/bosnia-and-herzegovina,,,,,,,Bosnia and Herzegovina,https://www.iea.org/countries/bosnia-and-herzegovina,Bosnia and Herzegovina,Bosnia and Herzegovina,Bosnia and Herzegovina,,Bosnia and Herzegovina,Bosnia and Herzegovina,Bosnia and Herzegovina,Bosnia and Herzegovina,Bosnia and Herzegovina,Bosnia-Herzegovina,,BOSNIA AND HERZEGOVINA,,COU-0128,Bosnia and Herzegovina,Bosnia and Herzegovina,https://ejatlas.org/country/bosnia-and-herzegovina,https://archive.doingbusiness.org/en/data/exploreeconomies/bosnia-and-herzegovina,,3210847,1614061,-0.703841743,0.151223816,Bosnia and Herzegovina,https://www.cif.org/country/brazil,Bosnia and Herzegovina,Bosnia and Herzegovina,,2739014,https://techselector.com/bosniaandherzegovina-en/,80,'070,,70,http://www.bhas.ba/,,,EUR,,europe
BW,BWA,Botswana,24.48164917,-22.3432745,35,Botswana,Botswana,https://data.worldbank.org/country/botswana?view=chart,Botswana,Botswana,https://www.ifad.org/en/web/operations/w/country/botswana,,,,,,,Botswana,https://www.iea.org/countries/botswana,Botswana,Botswana,,,Botswana,Botswana,Botswana,Botswana,Botswana,Botswana,,,,COU-0134,Botswana,Botswana,https://ejatlas.org/country/botswana,https://archive.doingbusiness.org/en/data/exploreeconomies/botswana,,2675352,1949449,1.698457309,2.584815758,Botswana,,Botswana,Botswana,,3679340,,20,'072,,72,http://www.cso.gov.bw/,,,AFR,1,
BR,BRA,Brazil,-49.72017435,-14.2398778,37,Brazil,Brazil,https://data.worldbank.org/country/brazil?view=chart,Brazil,Brazil,https://www.ifad.org/en/web/operations/w/country/brazil,https://www.caf.com/en/countries/brazil/,,https://www.iadb.org/en/countries/brazil/overview,,,Brazil,Brazil,https://www.iea.org/countries/brazil,Brazil,Brazil,,Brazil,Brazil,Brazil,Brazil,Brazil,Brazil,Brazil,,,https://openknowledge.worldbank.org/entities/publication/a713713d-0b47-4eb3-a162-be9a383c341b,COU-0132,Brazil,Brazil,https://ejatlas.org/country/brazil,https://archive.doingbusiness.org/en/data/exploreeconomies/brazil,/en/brazil/10/country-context,216422446,189992937,0.513716986,0.779482105,Brazil,,Brazil,Brazil,Brazil,230885725,,21,'076,,76,http://www.ibge.gov.br/,https://forobs.jrc.ec.europa.eu/static/tmf/factsheets/Brazil.pdf,https://lca.logcluster.org/brazil-limited-port-assessment,AME,,south-america
BN,BRN,Brunei Darussalam,114.5210018,4.526132153,40,Brunei Darussalam,Brunei,https://data.worldbank.org/country/brunei-darussalam?view=chart,Brunei Darussalam,Brunei Darussalam,,,,,https://www.adb.org/projects/country/bru,,,Brunei,https://www.iea.org/countries/brunei-darussalam,Brunei Darussalam,Brunei Darussalam,,,Brunei Darussalam,Brunei Darussalam,Brunei Darussalam,Brunei Darussalam,Brunei Darussalam,,,,,COU-0133,Brunei Darussalam,,,https://archive.doingbusiness.org/en/data/exploreeconomies/brunei,,452524,358168,0.781345833,1.154705736,Brunei Darussalam,,,Brunei Darussalam,,498373,,26,'096,,96,http://www.depd.gov.bn/dept_dos.html,,,ASI,,asia
BG,BGR,Bulgaria,25.2002584,42.726291,41,Bulgaria,Bulgaria,https://data.worldbank.org/country/bulgaria?view=chart,Bulgaria,Bulgaria,,,,,,,,Bulgaria,https://www.iea.org/countries/bulgaria,Bulgaria,,,,,Bulgaria,Bulgaria,Bulgaria,,Bulgaria,,BULGARIA,,COU-0126,Bulgaria,Bulgaria,https://ejatlas.org/country/bulgaria,https://archive.doingbusiness.org/en/data/exploreeconomies/bulgaria,,6430370,4932158,-0.538593662,-0.096949071,Bulgaria,,,Bulgaria,,4940498,https://techselector.com/bulgaria-en/,27,'100,,100,http://www.nsi.bg/,,,EUR,,europe
BF,BFA,Burkina Faso,-1.190005226,12.24772309,42,Burkina Faso,Burkina,https://data.worldbank.org/country/burkina-faso?view=chart,Burkina Faso,Burkina Faso,https://www.ifad.org/en/web/operations/w/country/burkina-faso,,,,,,,Burkina Faso,https://www.iea.org/countries/burkina-faso,Burkina Faso,Burkina Faso,,Burkina Faso,Burkina Faso,Burkina Faso,Burkina Faso,Burkina Faso,Burkina Faso,Burkina Faso,,,https://openknowledge.worldbank.org/handle/10986/37620,COU-0009,Burkina Faso,Burkina Faso,https://ejatlas.org/country/burkina-faso,https://archive.doingbusiness.org/en/data/exploreeconomies/burkina-faso,,23251485,7561383,2.516060403,4.513116801,Burkina Faso,https://www.cif.org/country/burkina-faso,Burkina Faso,Burkina Faso,,40541548,,233,'854,https://riceforafrica.net/country_site/burkina-faso/,854,http://www.insd.bf/n/,,https://lca.logcluster.org/burkina-faso,AFR,1,
BI,BDI,Burundi,29.94870617,-3.390948591,43,Burundi,Burundi,https://data.worldbank.org/country/burundi?view=chart,Burundi,Burundi,https://www.ifad.org/en/web/operations/w/country/burundi,,,,,,,Burundi,,Burundi,Burundi,,,Burundi,Burundi,Burundi,Burundi,Burundi,Burundi,,,,COU-0125,Burundi,,,https://archive.doingbusiness.org/en/data/exploreeconomies/burundi,,13238559,1957189,2.671478503,5.185255012,Burundi,,Burundi,Burundi,Burundi,24208671,,29,'108,https://riceforafrica.net/country_site/burundi/,108,http://www.isteebu.bi/,,https://lca.logcluster.org/burundi,AFR,1,
CV,CPV,Cabo Verde,-25.1726279,17.05540501,47,Cabo Verde,Verde,https://data.worldbank.org/country/cabo-verde?view=chart,Cabo Verde,Cape Verde,https://www.ifad.org/en/web/operations/w/country/cabo-verde,,,,,,,Cape Verde,,Cabo Verde,Cabo Verde,,​Cabo Verde,"Cabo Verde
(Republic of)",Cabo Verde,Cabo Verde,Cape Verde,Cabo Verde,Cabo Verde,,,,COU-0024,Cape Verde,,,https://archive.doingbusiness.org/en/data/exploreeconomies/cabo-verde,,598682,406996,0.928494015,1.573509691,Cabo Verde,,Cabo Verde,Cabo Verde,,727457,,35,'132,,132,http://www.ine.cv,,,AFR,,africa
KH,KHM,Cambodia,105.1290552,12.54893201,44,Cambodia,Cambodia,https://data.worldbank.org/country/cambodia?view=chart,Cambodia,Cambodia,https://www.ifad.org/en/web/operations/w/country/cambodia,,,,https://www.adb.org/projects/country/cam,,Cambodia,Cambodia,https://www.iea.org/countries/cambodia,Cambodia,Cambodia,,​Cambodia,Cambodia,Cambodia,Cambodia,Cambodia,Cambodia,Cambodia,Cambodia,,https://openknowledge.worldbank.org/entities/publication/83b19efc-96d1-4be4-8240-28e0e7f13c9b,COU-0058,Cambodia,Cambodia,https://ejatlas.org/country/cambodia,https://archive.doingbusiness.org/en/data/exploreeconomies/cambodia,/en/cambodia/158/country-context,16944826,4332792,1.049965111,2.849394093,Cambodia,https://www.cif.org/country/cambodia,Cambodia,,Cambodia,20258435,,115,'116,,116,http://www.nis.gov.kh,https://forobs.jrc.ec.europa.eu/static/tmf/factsheets/Cambodia.pdf,https://lca.logcluster.org/cambodia,ASI,,asia
CM,CMR,Cameroon,13.63946854,7.369678,45,Cameroon,Cameroon,https://data.worldbank.org/country/cameroon?view=chart,Cameroon,Cameroon,https://www.ifad.org/en/web/operations/w/country/cameroon,,,,,,,Cameroon,https://www.iea.org/countries/cameroon,Cameroon,Cameroon,,Cameroon,Cameroon,Cameroon,Cameroon,Cameroon,Cameroon,Cameroon,Cameroon,,https://openknowledge.worldbank.org/handle/10986/38242,COU-0136,Cameroon,Cameroon,https://ejatlas.org/country/cameroon,https://archive.doingbusiness.org/en/data/exploreeconomies/cameroon,/en/cameroon/22/country-context,28647293,16992142,2.591139679,3.577190786,Cameroon,https://www.cif.org/country/cameroon,Cameroon,Cameroon,Cameroon,51279560,,32,'120,https://riceforafrica.net/country_site/cameroon/,120,http://www.statistics-cameroon.org/,https://forobs.jrc.ec.europa.eu/static/tmf/factsheets/Cameroon.pdf,https://lca.logcluster.org/cameroon,AFR,,africa
CA,CAN,Canada,-110.4295004,56.83797409,46,Canada,Canada,https://data.worldbank.org/country/canada?view=chart,Canada,Canada,,,,,,,,Canada,https://www.iea.org/countries/canada,Canada,,,,,Canada,Canada,Canada,,,,,,COU-0016,Canada,Canada,https://ejatlas.org/country/canada,https://archive.doingbusiness.org/en/data/exploreeconomies/canada,,40097761,32824829,2.932274012,3.06673671,Canada,,,Canada,Canada,45946328,,33,'124,,124,http://www.statcan.gc.ca/,,,AME,,north-america
CF,CAF,Central African Republic,20.64730384,6.61422449,49,Central African Republic,Central African,https://data.worldbank.org/country/central-african-republic?view=chart,Central African Republic,Central African Republic,https://www.ifad.org/en/web/operations/w/country/central-african-republic,,,,,,,Central African Republic,,Central African Republic,Central African Republic,,​Central African Republic,Central African Republic,Central African Republic,Central African Republic,Central African Republic,Central African Republic (the),Central African Republic,,,,COU-0015,Central African Republic,,,https://archive.doingbusiness.org/en/data/exploreeconomies/central-african-republic,/en/central-african-republic/16/country-context,5742315,2504453,2.882707952,4.021820264,Central African Republic,,,Central African Republic,,11533423,,37,'140,https://riceforafrica.net/country_site/central-african-republic/,140,http://www.stat-centrafrique.com/,https://forobs.jrc.ec.europa.eu/static/tmf/factsheets/Central African Republic.pdf,https://lca.logcluster.org/central-african-republic,AFR,1,
TD,TCD,Chad,18.56554293,15.43819263,50,Chad,Chad,https://data.worldbank.org/country/chad?view=chart,Chad,Chad,https://www.ifad.org/en/web/operations/w/country/chad,,,,,,,Chad,https://www.iea.org/countries/chad,Chad,Chad,,​Chad,Chad,Chad,Chad,Chad,Chad,Chad,,,https://openknowledge.worldbank.org/handle/10986/37620,COU-0104,Chad,Chad,https://ejatlas.org/country/chad,https://archive.doingbusiness.org/en/data/exploreeconomies/chad,,18278568,4453756,3.084822155,4.336164326,Chad,,Chad,Chad,Chad,36452035,,39,'148,https://riceforafrica.net/country_site/chad/,148,http://www.inseed-tchad.org/,,https://lca.logcluster.org/chad,AFR,1,
CL,CHL,Chile,-71.48084181,-35.70037,51,Chile,Chile,https://data.worldbank.org/country/chile?view=chart,Chile,Chile,https://www.ifad.org/en/web/operations/w/country/chile,https://www.caf.com/en/countries/chile/,,https://www.iadb.org/en/countries/chile/overview,,,,Chile,https://www.iea.org/countries/chile,Chile,Chile,Chile,Chile,Chile,Chile,Chile,Chile,Chile,Chile,Chile,,,COU-0018,Chile,Chile,https://ejatlas.org/country/chile,https://archive.doingbusiness.org/en/data/exploreeconomies/chile,,19629590,17276395,0.131811439,0.245496927,Chile,https://www.cif.org/country/chile,Chile,Chile,Chile,20675378,,40,'152,,152,http://www.ine.cl/,,https://lca.logcluster.org/chile-limited-lca,AME,,south-america
CN,CHN,China,98.59621858,36.892857,147295,China,China,https://data.worldbank.org/country/china?view=chart,China,China,https://www.ifad.org/en/web/operations/w/country/china,,https://www.bcie.org/en/member-countries/non-regional/republic-of-china-taiwan,,https://www.adb.org/projects/country/prc,,China,China,https://www.iea.org/countries/china,China,China,,,China,China,China,China,China,China,,,https://openknowledge.worldbank.org/handle/10986/38136,COU-0019,China,China,https://ejatlas.org/country/china,https://archive.doingbusiness.org/en/data/exploreeconomies/china,/en/china/28/country-context,1410710000,910895447,-0.103794532,1.472761965,China,,China (People's Republic of),,China,1291395968,https://techselector.com/china-en/,351,'159,,156,http://www.stats.gov.cn,,,ASI,,asia
CO,COL,Colombia,-72.49342783,4.116660565,57,Colombia,Colombia,https://data.worldbank.org/country/colombia?view=chart,Colombia,Colombia,https://www.ifad.org/en/web/operations/w/country/colombia,https://www.caf.com/en/countries/colombia/,https://www.bcie.org/en/member-countries/non-regional/republic-of-colombia,https://www.iadb.org/en/countries/colombia/overview,,,,Colombia,https://www.iea.org/countries/colombia,Colombia,Colombia,Colombia,Colombia,Colombia,Colombia,Colombia,Colombia,Colombia,Colombia,Colombia,,https://openknowledge.worldbank.org/entities/publication/9b706816-2618-48d0-87d4-e7e99b7ad779,COU-0022,Colombia,Colombia,https://ejatlas.org/country/colombia,https://archive.doingbusiness.org/en/data/exploreeconomies/colombia,/en/colombia/127/country-context,52085168,42894219,0.406206101,0.776025891,Colombia,https://www.cif.org/country/colombia,Colombia,Colombia,Colombia,56987651,,44,'170,,170,http://www.dane.gov.co/,https://forobs.jrc.ec.europa.eu/static/tmf/factsheets/Colombia.pdf,https://lca.logcluster.org/colombia,AME,,south-america
KM,COM,Comoros,44.41284789,-12.22743525,58,Comoros,Comoros,https://data.worldbank.org/country/comoros?view=chart,Comoros,Comoros,https://www.ifad.org/en/web/operations/w/country/comoros,,,,,,,Comoros,,Comoros,Comoros,,,Comoros,Comoros,Comoros,Comoros,Comoros (the),Comoros,,,,COU-0023,Comoros,,,https://archive.doingbusiness.org/en/data/exploreeconomies/comoros,,852075,256747,1.812052904,2.705433627,Comoros,,Comoros,Comoros,,1246207,,45,'174,,174,,,https://lca.logcluster.org/comoros,AFR,,africa
CG,COG,Congo,16.09452542,-0.648042,59,Congo,Congo,https://data.worldbank.org/country/congo-rep?view=chart,"Congo, Rep.",Congo,https://www.ifad.org/en/web/operations/w/country/republic-of-congo,,,,,,,Congo,https://www.iea.org/countries/congo,Congo,Congo,,,Congo,Congo,Congo,Republic of Congo,Congo,Congo,Congo,,https://openknowledge.worldbank.org/entities/publication/7304e935-8400-4694-b7cf-aabe3ffa19e0,COU-0021,Congo,"Congo, Rep.",https://ejatlas.org/country/congo-rep,https://archive.doingbusiness.org/en/data/exploreeconomies/congo-rep,/en/republic-of-the-congo/152/country-context,6106869,4225221,2.25962566,2.91506395,Congo,https://www.cif.org/country/congo-republic,Congo,"Congo, Republic of ",,10378912,,46,'178,https://riceforafrica.net/country_site/congo-republic/,178,http://www.cnsee.org/,https://forobs.jrc.ec.europa.eu/static/tmf/factsheets/Congo.pdf,https://lca.logcluster.org/congo-republic,AFR,,africa
CK,COK,Cook Islands,-159.7698908,-21.22991467,60,Cook Islands,Cook,#,,Cook Islands,,,,,https://www.adb.org/projects/country/coo,,Cook Islands,Cook Islands,,Cook Islands,Cook Islands,Cook Islands,,Cook Islands,Cook Islands,,,Cook Islands,Cook Islands,Cook Islands,,,,,,,,,,,,,Cook Islands,,Cook Islands,,,,,47,'184,,184,http://www.stats.gov.ck/,,https://lca.logcluster.org/cook-islands,OCE,,oceania
CR,CRI,Costa Rica,-83.64010516,9.629852973,61,Costa Rica,Costa,https://data.worldbank.org/country/costa-rica?view=chart,Costa Rica,Costa Rica,https://www.ifad.org/en/web/operations/w/country/costa-rica,https://www.caf.com/en/countries/costa-rica/,https://www.bcie.org/en/member-countries/founders/republic-of-costa-rica,https://www.iadb.org/en/countries/costa-rica/overview,,,,Costa Rica,https://www.iea.org/countries/costa-rica,Costa Rica,Costa Rica,Costa Rica,​Costa Rica,Costa Rica,Costa Rica,Costa Rica,Costa Rica,Costa Rica,Costa Rica,Costa Rica,,,COU-0025,Costa Rica,Costa Rica,https://ejatlas.org/country/costa-rica,https://archive.doingbusiness.org/en/data/exploreeconomies/costa-rica,,5212173,4306402,0.603176927,1.307648139,Costa Rica,https://www.cif.org/country/costa-rica,Costa Rica,Costa Rica,,5702525,,48,'188,,188,http://www.inec.go.cr/,https://forobs.jrc.ec.europa.eu/static/tmf/factsheets/Costa Rica.pdf,https://lca.logcluster.org/costa-rica,AME,,north-america
CI,CIV,Côte d'Ivoire,-5.564543265,7.550690688,66,Côte d'Ivoire,Ivoire,https://data.worldbank.org/country/cote-divoire?view=chart,Cote d'Ivoire,cote divoire,https://www.ifad.org/en/web/operations/w/country/c%C3%B4te-d-ivoire,,,,,,Cote d'Ivoire,Cote d'Ivoire,https://www.iea.org/countries/cote-divoire,Cote d'Ivoire,Côte d'Ivoire,,,Côte d'Ivoire,Cote d'Ivoire,Côte d'Ivoire,Côte d'Ivoire,Cote d'Ivoire,Cote d'Ivoire,Côte d'Ivoire,,https://openknowledge.worldbank.org/entities/publication/a88651eb-86ce-49e3-b860-c4dc881498c1,COU-0135,Côte d'Ivoire,Ivory Coast,https://ejatlas.org/country/ivory-coast,https://archive.doingbusiness.org/en/data/exploreeconomies/cote-divoire,/en/republic-of-cote-divoire/176/country-context,28873034,15345729,2.498630168,3.421045989,Côte d'Ivoire,https://www.cif.org/country/cote-divoire,Côte d'Ivoire,Côte d'Ivoire,Cote d'Ivoire,51358243,,107,'384,https://riceforafrica.net/country_site/cote-divoire/,384,http://www.ins.ci/,https://forobs.jrc.ec.europa.eu/static/tmf/factsheets/Cote d'Ivoire.pdf,https://lca.logcluster.org/cote-divoire,AFR,,africa
HR,HRV,Croatia,15.33846623,44.74751949,62,Croatia,Croatia,https://data.worldbank.org/country/croatia?view=chart,Croatia,Croatia,,,,,,,,Croatia,https://www.iea.org/countries/croatia,Croatia,,,,,Croatia,Croatia,Croatia,,Croatia,,CROATIA,,COU-0050,Croatia,Croatia,https://ejatlas.org/country/croatia,https://archive.doingbusiness.org/en/data/exploreeconomies/croatia,,3853200,2257012,-0.063329885,0.546280476,Croatia,,Croatia,Croatia,,3175053,https://techselector.com/croatia-en/,98,'191,,191,http://www.dzs.hr/,,,EUR,,europe
CU,CUB,Cuba,-77.81186116,21.51447049,63,Cuba,Cuba,https://data.worldbank.org/country/cuba?view=chart,Cuba,Cuba,https://www.ifad.org/en/web/operations/w/country/cuba,,https://www.bcie.org/en/member-countries/non-regional/republic-of-cuba,,,,,Cuba,https://www.iea.org/countries/cuba,Cuba,Cuba,Cuba,,Cuba,Cuba,Cuba,,Cuba,Cuba,Cuba,,,COU-0137,Cuba,Cuba,https://ejatlas.org/country/cuba,,,11194449,8678273,-0.158363804,-0.000864224,Cuba,,Cuba,,,10028085,,49,'192,,192,http://www.one.cu/,https://forobs.jrc.ec.europa.eu/static/tmf/factsheets/Cuba.pdf,,AME,,north-america
CY,CYP,Cyprus,33.39757883,35.163729,64,Cyprus,Cyprus,https://data.worldbank.org/country/cyprus?view=chart,Cyprus,Cyprus,https://www.ifad.org/en/web/operations/w/country/cyprus,,,,,,,Cyprus,https://www.iea.org/countries/cyprus,Cyprus,,,,Cyprus,Cyprus,Cyprus,Cyprus,,,,CYPRUS,,COU-0026,Cyprus,Cyprus,https://ejatlas.org/country/cyprus,https://archive.doingbusiness.org/en/data/exploreeconomies/cyprus,,1260138,844129,0.688799543,0.802377407,Cyprus,,,Cyprus,,1391785,https://techselector.com/cyprus-en/,50,'196,,196,http://www.mof.gov.cy/mof/cystat/statistics.nsf,,https://lca.logcluster.org/cyprus,EUR,,europe
CZ,CZE,Czechia,15.52834298,49.8038435,65,Czech Republic,Czech,https://data.worldbank.org/country/czechia?view=chart,Czechia,Czechia,,,,,,,,Czechia,https://www.iea.org/countries/czech-republic,Czechia,,,,,Czechia,Czech Republic,Czech Republic,,Czechia,,CZECH REPUBLIC,,COU-0027,Czech Republic,Czech Republic,https://ejatlas.org/country/czech-republic,https://archive.doingbusiness.org/en/data/exploreeconomies/czech-republic,,10873689,8106553,1.87114719,2.10616584,Czechia,,,Czech Republic,Czechia,10717496,,167,'203,,203,http://www.czso.cz,,,EUR,,europe
KP,PRK,Democratic People's Republic of Korea,126.7427003,40.34117841,67,Democratic People's Republic of Korea,Korea,https://data.worldbank.org/country/korea-dem-peoples-rep?view=chart,"Korea, Dem. People's Rep.",Democratic People's Republic of Korea,https://www.ifad.org/en/web/operations/w/country/democratic-republic-of-korea,,,,,,,,https://www.iea.org/countries/korea-democratic-peoples-republic-of,Democratic People's Republic of Korea,Democratic People's Republic of Korea,,,Democratic People's Republic of Korea,Democratic People's Republic of Korea,Korea DPR,,Democratic People's Republic of Korea (the),Korea DPR,,,,COU-0171,North Korea,,,,,26160821,16534424,0.350008342,0.805135278,Democratic People's Republic of Korea,,Democratic People's Republic of Korea,,,25807197,,116,'408,,408,,,,ASI,,asia
CD,COD,Democratic Republic of the Congo,22.44999847,-4.033824251,68,Democratic Republic of the Congo,Congo,https://data.worldbank.org/country/congo-dem-rep?view=chart,"Congo, Dem. Rep.","Congo, the Democratic Republic of the",https://www.ifad.org/en/web/operations/w/country/democratic-republic-of-the-congo,,,,,,,Democratic Republic of Congo,https://www.iea.org/countries/democratic-republic-of-the-congo,Democratic Republic of the Congo,Democratic Republic of the Congo,,​Democratic Republic of Congo,Democratic Republic of the Congo,Democratic Republic of the Congo,Congo DR,Democratic Republic of Congo,Democratic Republic of the Congo (the),Congo DR,,,https://openknowledge.worldbank.org/entities/publication/b1dd27cc-249f-4380-9b73-80cb8f695a43,COU-0020,Dem. Rep. Congo,"Congo, Dem. Rep.",https://ejatlas.org/country/congo-dem-rep,https://archive.doingbusiness.org/en/data/exploreeconomies/congo-dem-rep,/en/democratic-republic-of-the-congo/36/country-context,102262808,48517567,3.232305236,4.519963923,Democratic Republic of the Congo,https://www.cif.org/country/democratic-republic-congo,Democratic Republic of the Congo,,"Congo, Democratic Republic of",217494003,,250,'180,https://riceforafrica.net/country_site/dr-congo/,180,,https://forobs.jrc.ec.europa.eu/static/tmf/factsheets/Democratic Republic of the Congo.pdf,https://lca.logcluster.org/democratic-republic-congo,AFR,,africa
DK,DNK,Denmark,9.321930239,55.93967056,69,Denmark,Denmark,https://data.worldbank.org/country/denmark?view=chart,Denmark,Denmark,,,,,,,,Denmark,https://www.iea.org/countries/denmark,Denmark,,,,,Denmark,Denmark,Denmark,,,,,,COU-0031,Denmark,Denmark,https://ejatlas.org/country/denmark,https://archive.doingbusiness.org/en/data/exploreeconomies/denmark,,5946952,5262755,0.741185516,0.885922246,Denmark,,,Denmark,Denmark,6428265,,54,'208,,208,http://www.dst.dk/,,,EUR,,europe
DJ,DJI,Djibouti,42.50763845,11.81444478,70,Djibouti,Djibouti,https://data.worldbank.org/country/djibouti?view=chart,Djibouti,Djibouti,https://www.ifad.org/en/web/operations/w/country/djibouti,,,,,,,Djibouti,,Djibouti,Djibouti,,,Djibouti,Djibouti,Djibouti,Djibouti,Djibouti,Djibouti,Djibouti,,,COU-0029,Djibouti,,,https://archive.doingbusiness.org/en/data/exploreeconomies/djibouti,,1136455,892708,1.382733442,1.6019728,Djibouti,,Djibouti,Djibouti,Djibouti,1502575,,72,'262,,262,http://www.ministere-finances.dj/,,https://lca.logcluster.org/djibouti,AFR,,africa
DM,DMA,Dominica,-61.34136977,15.42356759,71,Dominica,Dominica,https://data.worldbank.org/country/dominica?view=chart,Dominica,Dominica,https://www.ifad.org/en/web/operations/w/country/dominica,,,,,https://www.caribank.org/countries-and-members/borrowing-members/dominica,,Dominica,,Dominica,Dominica,Dominica,,Dominica,Dominica,Dominica,Dominica,Dominica,Dominica,,,,COU-0030,Dominica,,,https://archive.doingbusiness.org/en/data/exploreeconomies/dominica,,73040,52593,0.415704036,0.842049942,Dominica,https://www.cif.org/country/dominica,Dominica,Dominica,Dominica,74167,,55,'212,,212,,,https://lca.logcluster.org/dominica,AME,,north-america
DO,DOM,Dominican Republic,-70.12331104,18.76875405,72,Dominican Republic,Dominican,https://data.worldbank.org/country/dominican-republic?view=chart,Dominican Republic,Dominican Republic,https://www.ifad.org/en/web/operations/w/country/dominican-republic,https://www.caf.com/en/countries/dominican-republic/,https://www.bcie.org/en/member-countries/regional-non-founding-members/dominican-republic-1,https://www.iadb.org/en/countries/dominican-republic/overview,,,,Dominican Republic,https://www.iea.org/countries/dominican-republic,Dominican Republic,Dominican Republic,Dominican Republic,,Dominican Republic,Dominican Republic,Dominican Republic,Dominican Republic,Dominican Republic (the),Dominican Republic,Dominican Republic,,https://openknowledge.worldbank.org/entities/publication/92ff46b2-650d-4395-b1d4-9c51dcdc6448,COU-0032,Dominican Republic,Dominican Republic,https://ejatlas.org/country/dominican-republic,https://archive.doingbusiness.org/en/data/exploreeconomies/dominican-republic,,11332972,9570242,0.923257649,1.633924819,Dominican Republic,https://www.cif.org/country/dominican-republic,Dominican Republic,Dominican Republic,Dominican Republic,13180541,,56,'214,,214,http://www.one.gob.do/,https://forobs.jrc.ec.europa.eu/static/tmf/factsheets/Dominican Republic.pdf,https://lca.logcluster.org/dominican-republic,AME,,north-america
EC,ECU,Ecuador,-78.26462723,-1.772921991,73,Ecuador,Ecuador,https://data.worldbank.org/country/ecuador?view=chart,Ecuador,Ecuador,https://www.ifad.org/en/web/operations/w/country/ecuador,https://www.caf.com/en/countries/ecuador/,,https://www.iadb.org/en/countries/ecuador/overview,,,Ecuador,Ecuador,https://www.iea.org/countries/ecuador,Ecuador,Ecuador,Ecuador,,Ecuador,Ecuador,Ecuador,Ecuador,Ecuador,Ecuador,Ecuador,,,COU-0033,Ecuador,Ecuador,https://ejatlas.org/country/ecuador,https://archive.doingbusiness.org/en/data/exploreeconomies/ecuador,/en/ecuador/42/country-context,18190484,11785978,1.047128829,1.390346142,Ecuador,https://www.cif.org/country/ecuador,Ecuador,Ecuador,Ecuador,22269779,,58,'218,,218,http://www.ecuadorencifras.gob.ec/,https://forobs.jrc.ec.europa.eu/static/tmf/factsheets/Ecuador.pdf,https://lca.logcluster.org/ecuador,AME,,south-america
EG,EGY,Egypt,29.47355416,26.8326148,40765,Egypt,Egypt,https://data.worldbank.org/country/egypt-arab-rep?view=chart,"Egypt, Arab Rep.",Egypt,https://www.ifad.org/en/web/operations/w/country/egypt,,,,,,Egypt,Egypt,https://www.iea.org/countries/egypt,Egypt,Egypt,,,Egypt,Egypt,Egypt,Egypt,Egypt,Egypt,Egypt,EGYPT,https://openknowledge.worldbank.org/handle/10986/38245 ,COU-0140,Egypt,Egypt,https://ejatlas.org/country/egypt,https://archive.doingbusiness.org/en/data/exploreeconomies/egypt,,112716598,48580854,1.543565098,1.852626497,Egypt,https://www.cif.org/country/egypt,Egypt,Egypt,Egypt,160339889,https://techselector.com/egypt-en/,59,'818,,818,http://www.capmas.gov.eg/,,https://lca.logcluster.org/egypt,AFR,,africa
SV,SLV,El Salvador,-88.91061891,13.80288978,75,El Salvador,Salvador,https://data.worldbank.org/country/el-salvador?view=chart,El Salvador,El Salvador,https://www.ifad.org/en/web/operations/w/country/el-salvador,,https://www.bcie.org/en/member-countries/founders/republic-of-el-salvador,https://www.iadb.org/en/countries/el-salvador/overview,,,,El Salvador,,El Salvador,El Salvador,El Salvador,,El Salvador,El Salvador,El Salvador,El Salvador,El Salvador,El Salvador,El Salvador,,,COU-0179,El Salvador,El Salvador,https://ejatlas.org/country/el-salvador,https://archive.doingbusiness.org/en/data/exploreeconomies/el-salvador,,6364943,4798721,0.449575546,1.283352123,El Salvador,,El Salvador,El Salvador,El Salvador,6636854,,60,'222,,222,http://www.digestyc.gob.sv/,,https://lca.logcluster.org/el-salvador,AME,,north-america
GQ,GNQ,Equatorial Guinea,10.47166632,1.629711454,76,Equatorial Guinea,Equatorial Guinea,https://data.worldbank.org/country/equatorial-guinea?view=chart,Equatorial Guinea,Equatorial Guinea,https://www.ifad.org/en/web/operations/w/country/equatorial-guinea,,,,,,,Equatorial Guinea,,Equatorial Guinea,Equatorial Guinea,,,Equatorial Guinea,Equatorial Guinea,Equatorial Guinea,,Equatorial Guinea,Equatorial Guinea,,,,COU-0143,Equatorial Guinea,Equatorial Guinea,https://ejatlas.org/country/equatorial-guinea,https://archive.doingbusiness.org/en/data/exploreeconomies/equatorial-guinea,,1714671,1276538,2.346298708,2.936378594,Equatorial Guinea,,Equatorial Guinea,Equatorial Guinea,,2790533,,61,'226,,226,http://www.inege.gq/,https://forobs.jrc.ec.europa.eu/static/tmf/factsheets/Equatorial Guinea.pdf,,AFR,,africa
ER,ERI,Eritrea,38.07692181,15.17815566,77,Eritrea,Eritrea,https://data.worldbank.org/country/eritrea?view=chart,Eritrea,Eritrea,https://www.ifad.org/en/web/operations/w/country/eritrea,,,,,,,Eritrea,https://www.iea.org/countries/eritrea,Eritrea,Eritrea,,,Eritrea,Eritrea,Eritrea,Eritrea,Eritrea,Eritrea,Eritrea,,,COU-0034,Eritrea,,,https://archive.doingbusiness.org/en/data/exploreeconomies/eritrea,,3748901,1622037,1.74549258,3.240398334,Eritrea,,Eritrea,Eritrea,,5964021,,178,'232,,232,,,,AFR,,africa
EE,EST,Estonia,25.50687408,58.59264421,78,Estonia,Estonia,https://data.worldbank.org/country/estonia?view=chart,Estonia,Estonia,,,,,,,,Estonia,https://www.iea.org/countries/estonia,Estonia,,,,,Estonia,Estonia,Estonia,,Estonia,,ESTONIA,,COU-0036,Estonia,Estonia,https://ejatlas.org/country/estonia,https://archive.doingbusiness.org/en/data/exploreeconomies/estonia,,1366188,953736,1.277941597,1.566301537,Estonia,,,Estonia,,1188891,https://techselector.com/estonia-en/,63,'233,,233,http://www.stat.ee/,,,EUR,,europe
SZ,SWZ,Eswatini,31.46471144,-26.51673205,235,Eswatini,Eswatini,https://data.worldbank.org/country/eswatini?view=chart,Eswatini,Eswatini,https://www.ifad.org/en/web/operations/w/country/eswatini,,,,,,,Eswatini,,Eswatini,Eswatini,,,Eswatini,Eswatini,Eswatini,Eswatini,Eswatini,Eswatini,,,,COU-0183,Eswatini,Swaziland,https://ejatlas.org/country/swaziland,https://archive.doingbusiness.org/en/data/exploreeconomies/eswatini,,1210822,300163,0.758721182,1.625937395,Eswatini,,Eswatini,Eswatini,Eswatini,1655121,,209,'748,,748,http://www.swazistats.org.sz/,,https://lca.logcluster.org/eswatini,AFR,1,
ET,ETH,Ethiopia,38.99407162,9.148927956,79,Ethiopia,Ethiopia,https://data.worldbank.org/country/ethiopia?view=chart,Ethiopia,Ethiopia,https://www.ifad.org/en/web/operations/w/country/ethiopia,,,,,,,Ethiopia,https://www.iea.org/countries/ethiopia,Ethiopia,Ethiopia,Ethiopia,​Ethiopia,Ethiopia,Ethiopia,Ethiopia,Ethiopia,Ethiopia,Ethiopia,Ethiopia,,https://openknowledge.worldbank.org/entities/publication/4f599a4a-b79f-4979-826c-d8ca1fb35d24,COU-0037,Ethiopia,Ethiopia,https://ejatlas.org/country/ethiopia,https://archive.doingbusiness.org/en/data/exploreeconomies/ethiopia,,126527060,29299871,2.518779054,4.683949111,Ethiopia,https://www.cif.org/country/ethiopia,Ethiopia,,Ethiopia,214812309,,238,'231,https://riceforafrica.net/country_site/ethiopia/,231,http://www.csa.gov.et/,https://forobs.jrc.ec.europa.eu/static/tmf/factsheets/Ethiopia.pdf,https://lca.logcluster.org/ethiopia,AFR,1,
FJ,FJI,Fiji,177.9783569,-17.79362564,83,Fiji,Fiji,https://data.worldbank.org/country/fiji?view=chart,Fiji,Fiji,https://www.ifad.org/en/web/operations/w/country/fiji,,,,https://www.adb.org/projects/country/fij,,Fiji,Fiji,,Fiji,Fiji,,​Fiji,Fiji,Fiji,Fiji,Fiji,Fiji,Fiji,Fiji,,,COU-0039,Fiji,,,https://archive.doingbusiness.org/en/data/exploreeconomies/fiji,,936375,549774,0.708309568,1.536183703,Fiji,https://www.cif.org/country/fiji,Fiji,Fiji,Fiji,1094174,,66,'242,,242,http://www.statsfiji.gov.fj,,https://lca.logcluster.org/fiji,OCE,,oceania
FI,FIN,Finland,27.54103583,64.95111465,84,Finland,Finland,https://data.worldbank.org/country/finland?view=chart,Finland,Finland,,,,,,,,Finland,https://www.iea.org/countries/finland,Finland,,,,,Finland,Finland,Finland,,,,,,COU-0038,Finland,Finland,https://ejatlas.org/country/finland,https://archive.doingbusiness.org/en/data/exploreeconomies/finland,,5584264,4789791,0.50551391,0.61284015,Finland,,,Finland,Finland,5450846,,67,'246,,246,http://www.stat.fi/,,,EUR,,europe
FR,FRA,France,2.184321455,46.71355765,85,France,France,https://data.worldbank.org/country/france?view=chart,France,France,,,,,,,,France,https://www.iea.org/countries/france,France,,,,,France,France,France,,,,,,COU-0040,France,France,https://ejatlas.org/country/france,https://archive.doingbusiness.org/en/data/exploreeconomies/france,,68170228,55747567,0.292221086,0.620478932,France,,,France,France,68609096,,68,'250,,250,http://www.insee.fr/,,,EUR,,europe
GA,GAB,Gabon,11.66093113,-0.824161987,89,Gabon,Gabon,https://data.worldbank.org/country/gabon?view=chart,Gabon,Gabon,https://www.ifad.org/en/web/operations/w/country/gabon,,,,,,,Gabon,https://www.iea.org/countries/gabon,Gabon,Gabon,,,Gabon,Gabon,Gabon,Gabon,Gabon,Gabon,,,,COU-0042,Gabon,Gabon,https://ejatlas.org/country/gabon,https://archive.doingbusiness.org/en/data/exploreeconomies/gabon,/en/gabon/3/country-context,2436566,2217982,1.971815131,2.295321939,Gabon,,Gabon,Gabon,,3757053,,74,'266,https://riceforafrica.net/country_site/gabon/,266,http://www.stat-gabon.org/,https://forobs.jrc.ec.europa.eu/static/tmf/factsheets/Gabon.pdf,,AFR,,africa
GM,GMB,Gambia,-14.30477576,13.44017951,90,Gambia,Gambia,https://data.worldbank.org/country/gambia-the?view=chart,"Gambia, The",Gambia,https://www.ifad.org/en/web/operations/w/country/the-gambia,,,,,,,Gambia,,Gambia,Gambia,Gambia,,Gambia,Gambia,Gambia,The Gambia,Gambia,Gambia,Gambia,,,COU-0045,The Gambia,"Gambia, The",https://ejatlas.org/country/gambia-the,https://archive.doingbusiness.org/en/data/exploreeconomies/gambia,,2773168,1787917,2.452177565,3.418496918,Gambia,https://www.cif.org/country/gambia,Gambia,"Gambia, The",,4673743,,75,'270,https://riceforafrica.net/country_site/the-gambia/,270,http://www.gbos.gm/,,https://lca.logcluster.org/gambia,AFR,,africa
GE,GEO,Georgia,43.68432858,42.321011,92,Georgia,Georgia,https://data.worldbank.org/country/georgia?view=chart,Georgia,Georgia,https://www.ifad.org/en/web/operations/w/country/georgia,,,,https://www.adb.org/projects/country/geo,,Georgia,Georgia,https://www.iea.org/countries/georgia,Georgia,Georgia,Georgia,,Georgia,Georgia,Georgia,Georgia,Georgia,Georgia,Georgia,GEORGIA,,COU-0141,Georgia,Georgia,https://ejatlas.org/country/georgia,https://archive.doingbusiness.org/en/data/exploreeconomies/georgia,,3760365,2283557,1.280998431,1.991625474,Georgia,,Georgia,,Georgia,3347803,https://techselector.com/georgia-en/,73,'268,,268,http://www.geostat.ge/index.php?lang=eng,,https://lca.logcluster.org/georgia,EUR,,europe
DE,DEU,Germany,10.57975437,51.16505609,93,Germany,Germany,https://data.worldbank.org/country/germany?view=chart,Germany,Germany,,,,,,,,Germany,https://www.iea.org/countries/germany,Germany,,,,,Germany,Germany,Germany,,,,,,COU-0028,Germany,Germany,https://ejatlas.org/country/germany,https://archive.doingbusiness.org/en/data/exploreeconomies/germany,,84482267,65697635,0.81326925,0.96383654,Germany,,,Germany,Germany,78586096,,79,'276,,276,http://www.destatis.de,,,EUR,,europe
GH,GHA,Ghana,-1.062431103,7.955231284,94,Ghana,Ghana,https://data.worldbank.org/country/ghana?view=chart,Ghana,Ghana,https://www.ifad.org/en/web/operations/w/country/ghana,,,,,,,Ghana,https://www.iea.org/countries/ghana,Ghana,Ghana,,,Ghana,Ghana,Ghana,Ghana,Ghana,Ghana,Ghana,,https://openknowledge.worldbank.org/handle/10986/38209,COU-0142,Ghana,Ghana,https://ejatlas.org/country/ghana,https://archive.doingbusiness.org/en/data/exploreeconomies/ghana,/en/ghana/48/country-context,34121985,20213181,1.911701717,2.968959526,Ghana,https://www.cif.org/country/ghana,Ghana,Ghana,Ghana,52231785,,81,'288,https://riceforafrica.net/country_site/ghana/,288,http://www.statsghana.gov.gh/,https://forobs.jrc.ec.europa.eu/static/tmf/factsheets/Ghana.pdf,https://lca.logcluster.org/ghana,AFR,,africa
GR,GRC,Greece,21.84525184,39.06740761,97,Greece,Greece,https://data.worldbank.org/country/greece?view=chart,Greece,Greece,,,,,,,,Greece,https://www.iea.org/countries/greece,Greece,,,,,Greece,Greece,Greece,,,,GREECE,,COU-0047,Greece,Greece,https://ejatlas.org/country/greece,https://archive.doingbusiness.org/en/data/exploreeconomies/greece,,10361295,8358768,-0.631359846,-0.238876502,Greece,,,Greece,Greece,9123838,https://techselector.com/greece-en/,84,'300,,300,http://www.statistics.gr/,,,EUR,,europe
GD,GRD,Grenada,-61.68485186,12.10918236,99,Grenada,Grenada,https://data.worldbank.org/country/grenada?view=chart,Grenada,Grenada,https://www.ifad.org/en/web/operations/w/country/grenada,,,,,https://www.caribank.org/countries-and-members/borrowing-members/grenada,,Grenada,,Grenada,Grenada,,​Grenada,Grenada,Grenada,Grenada,Grenada,Grenada,Grenada,,,,COU-0048,Grenada,,,https://archive.doingbusiness.org/en/data/exploreeconomies/grenada,,126183,46762,0.592162162,1.109593356,Grenada,https://www.cif.org/country/grenada,Grenada,Grenada,Grenada,136253,,86,'308,,308,,,https://lca.logcluster.org/grenada,AME,,north-america
GT,GTM,Guatemala,-90.29114596,15.77834695,103,Guatemala,Guatemala,https://data.worldbank.org/country/guatemala?view=chart,Guatemala,Guatemala,https://www.ifad.org/en/web/operations/w/country/guatemala,,https://www.bcie.org/en/member-countries/founders/republic-of-guatemala,https://www.iadb.org/en/countries/guatemala/overview,,,,Guatemala,https://www.iea.org/countries/guatemala,Guatemala,Guatemala,Guatemala,​Guatemala,Guatemala,Guatemala,Guatemala,Guatemala,Guatemala,Guatemala,Guatemala,,,COU-0144,Guatemala,Guatemala,https://ejatlas.org/country/guatemala,https://archive.doingbusiness.org/en/data/exploreeconomies/guatemala,,17602431,9346539,1.399008988,2.2159313,Guatemala,https://www.cif.org/country/guatemala,Guatemala,Guatemala,Guatemala,23846174,,89,'320,,320,http://www.ine.gob.gt/,https://forobs.jrc.ec.europa.eu/static/tmf/factsheets/Guatemala.pdf,https://lca.logcluster.org/guatemala,AME,,north-america
GN,GIN,Guinea,-9.662987795,9.9335735,106,Guinea,Guinea,https://data.worldbank.org/country/guinea?view=chart,Guinea,Guinea,https://www.ifad.org/en/web/operations/w/country/guinea,,,,,,,Guinea,,Guinea,Guinea,,,Guinea,Guinea,Guinea,Guinea,Guinea,Guinea,,,,COU-0044,Guinea,Guinea,https://ejatlas.org/country/guinea,https://archive.doingbusiness.org/en/data/exploreeconomies/guinea,,14190612,5404495,2.362117347,3.463074455,Guinea,,Guinea,Guinea,Guinea,23711700,,90,'324,https://riceforafrica.net/country_site/guinea/,324,http://www.stat-guinee.org/,https://forobs.jrc.ec.europa.eu/static/tmf/factsheets/Guinea.pdf,https://lca.logcluster.org/guinea,AFR,,africa
GW,GNB,Guinea-Bissau,-14.60140844,11.80139933,105,Guinea-Bissau,Guinea-Bissau,https://data.worldbank.org/country/guinea-bissau?view=chart,Guinea-Bissau,Guinea-Bissau,https://www.ifad.org/en/web/operations/w/country/guinea-bissau,,,,,,,Guinea-Bissau,,Guinea-Bissau,Guinea-Bissau,,,Guinea-Bissau,Guinea-Bissau,Guinea-Bissau,Guinea-Bissau,Guinea-Bissau,Guinea-Bissau,Guinea-Bissau,,,COU-0046,Guinea-Bissau,Guinea-Bissau,https://ejatlas.org/country/guinea-bissau,https://archive.doingbusiness.org/en/data/exploreeconomies/guinea-bissau,,2150842,977902,2.127507878,3.066684793,Guinea-Bissau,,Guinea-Bissau,Guinea-Bissau,,3445289,,175,'624,https://riceforafrica.net/country_site/guinea-bissau/,624,http://www.stat-guinebissau.com/,,https://lca.logcluster.org/guinea-bissau,AFR,,africa
GY,GUY,Guyana,-58.95391075,4.855791571,107,Guyana,Guyana,https://data.worldbank.org/country/guyana?view=chart,Guyana,Guyana,https://www.ifad.org/en/web/operations/w/country/guyana,,,https://www.iadb.org/en/countries/guyana/overview,,https://www.caribank.org/countries-and-members/borrowing-members/guyana,,Guyana,,Guyana,Guyana,,,Guyana,Guyana,Guyana,Guyana,Guyana,Guyana,,,,COU-0049,Guyana,Guyana,https://ejatlas.org/country/guyana,https://archive.doingbusiness.org/en/data/exploreeconomies/guyana,/en/guyana/54/country-context,813834,221054,0.629624405,1.146540672,Guyana,,Guyana,Guyana,Guyana,878746,,91,'328,,328,http://www.statisticsguyana.gov.gy/,https://forobs.jrc.ec.europa.eu/static/tmf/factsheets/Guyana.pdf,,AME,,south-america
HT,HTI,Haiti,-72.29452768,18.9873765,108,Haiti,Haiti,https://data.worldbank.org/country/haiti?view=chart,Haiti,Haiti,https://www.ifad.org/en/web/operations/w/country/haiti,,,https://www.iadb.org/en/countries/haiti/overview,,https://www.caribank.org/countries-and-members/borrowing-members/haiti,,Haiti,https://www.iea.org/countries/haiti,Haiti,Haiti,,,Haiti,Haiti,Haiti,Haiti,Haiti,Haiti,Haiti,,,COU-0051,Haiti,Haiti,https://ejatlas.org/country/haiti,https://archive.doingbusiness.org/en/data/exploreeconomies/haiti,,11724763,6994525,1.19922883,2.610508864,Haiti,https://www.cif.org/country/haiti,Haiti,Haiti,Haiti,15087520,,93,'332,,332,http://www.ihsi.ht/,,https://lca.logcluster.org/haiti,AME,,north-america
HN,HND,Honduras,-87.22682724,14.50398828,111,Honduras,Honduras,https://data.worldbank.org/country/honduras?view=chart,Honduras,Honduras,https://www.ifad.org/en/web/operations/w/country/honduras,,https://www.bcie.org/en/member-countries/founders/republic-of-honduras,https://www.iadb.org/en/countries/honduras/overview,,,,Honduras,https://www.iea.org/countries/honduras,Honduras,Honduras,Honduras,,Honduras,Honduras,Honduras,Honduras,Honduras,Honduras,Honduras,,https://openknowledge.worldbank.org/entities/publication/cfe562d2-1a82-4e00-9b1f-d925c33668c6,COU-0145,Honduras,Honduras,https://ejatlas.org/country/honduras,https://archive.doingbusiness.org/en/data/exploreeconomies/honduras,/en/honduras/60/country-context,10593798,6378738,1.530829511,2.552437287,Honduras,https://www.cif.org/country/honduras,Honduras,Honduras,,14258514,,95,'340,,340,https://www.ine.gob.hn/V3/,https://forobs.jrc.ec.europa.eu/static/tmf/factsheets/Honduras.pdf,https://lca.logcluster.org/honduras,AME,,north-america
HU,HUN,Hungary,19.13546202,47.16122,113,Hungary,Hungary,https://data.worldbank.org/country/hungary?view=chart,Hungary,Hungary,,,,,,,Hungary,Hungary,https://www.iea.org/countries/hungary,Hungary,,,,,Hungary,Hungary,Hungary,,Hungary,,HUNGARY,,COU-0052,Hungary,Hungary,https://ejatlas.org/country/hungary,https://archive.doingbusiness.org/en/data/exploreeconomies/hungary,,9589872,6987564,-0.552969965,-0.123857729,Hungary,,,Hungary,Hungary,8112307,https://techselector.com/hungary-en/,97,'348,,348,http://www.ksh.hu/?lang=en,,https://lca.logcluster.org/hungary-ukraine-response,EUR,,europe
IS,ISL,Iceland,-18.43545412,64.96580625,114,Iceland,Iceland,https://data.worldbank.org/country/iceland?view=chart,Iceland,Iceland,,,,,,,,Iceland,https://www.iea.org/countries/iceland,Iceland,,,,,Iceland,Iceland,Iceland,,,,,,COU-0054,Iceland,Iceland,https://ejatlas.org/country/iceland,https://archive.doingbusiness.org/en/data/exploreeconomies/iceland,,393600,370149,2.99067032,3.043840248,Iceland,,,Iceland,,415755,,99,'352,,352,http://www.hagstofa.is/,,,EUR,,europe
IN,IND,India,79.89890755,20.62207945,115,India,India,https://data.worldbank.org/country/india?view=chart,India,India,https://www.ifad.org/en/web/operations/w/country/india,,,,https://www.adb.org/projects/country/ind,,India,India,https://www.iea.org/countries/india,India,India,,,India,India,India,India,India,India,India,,,COU-0147,India,India,https://ejatlas.org/country/india,https://archive.doingbusiness.org/en/data/exploreeconomies/india,/en/india/66/country-context,1428627663,519506163,0.805014301,2.167236891,India,https://www.cif.org/country/india,India,India,India,1670490596,,100,'356,,356,http://www.mospi.gov.in,https://forobs.jrc.ec.europa.eu/static/tmf/factsheets/India.pdf,,ASI,,asia
ID,IDN,Indonesia,113.3194135,0.10975,116,Indonesia,Indonesia,https://data.worldbank.org/country/indonesia?view=chart,Indonesia,Indonesia,https://www.ifad.org/en/web/operations/w/country/indonesia,,,,https://www.adb.org/projects/country/ino,,Indonesia,Indonesia,https://www.iea.org/countries/indonesia,Indonesia,Indonesia,Indonesia,,Indonesia,Indonesia,Indonesia,Indonesia,Indonesia,Indonesia,Indonesia,,https://openknowledge.worldbank.org/entities/publication/c6b1d872-f487-4579-be3a-3cb6ba55dffa,COU-0146,Indonesia,Indonesia,https://ejatlas.org/country/indonesia,https://archive.doingbusiness.org/en/data/exploreeconomies/indonesia,/en/indonesia/72/country-context,277534122,162557286,0.735139895,1.83037328,Indonesia,https://www.cif.org/country/indonesia,Indonesia,Indonesia,Indonesia,317225213,,101,'360,,360,http://www.bps.go.id,https://forobs.jrc.ec.europa.eu/static/tmf/factsheets/Indonesia.pdf,https://lca.logcluster.org/indonesia,ASI,,asia
IR,IRN,Iran (Islamic Republic of),54.12751223,32.4238782,117,Iran,Iran,https://data.worldbank.org/country/iran-islamic-rep?view=chart,"Iran, Islamic Rep.",Iran,,,,,,,,Iran,https://www.iea.org/countries/iran,,Iran (Islamic Republic of),Iran (Islamic Republic of),,"Iran
(Islamic Republic of)",Iran (Islamic Republic of),Iran,Islamic Republic of Iran,Iran (Islamic Republic of),Iran,,,,COU-0148,"Iran, Islamic Republic of","Iran, Islamic Rep.",https://ejatlas.org/country/iran-islamic-rep,https://archive.doingbusiness.org/en/data/exploreeconomies/iran,,89172767,68892205,0.700188903,1.284364396,Iran (Islamic Republic of),,Iran,Iran,,99007204,,102,'364,,364,http://www.amar.org.ir/,,https://lca.logcluster.org/iran-islamic-republic,ASI,,asia
IQ,IRQ,Iraq,42.51380714,33.22448147,118,Iraq,Iraq,https://data.worldbank.org/country/iraq?view=chart,Iraq,Iraq,https://www.ifad.org/en/web/operations/w/country/iraq,,,,,,,Iraq,https://www.iea.org/countries/iraq,Iraq,Iraq,,,Iraq,Iraq,Iraq,Iraq,Iraq,Iraq,Iraq,,https://openknowledge.worldbank.org/handle/10986/38250,COU-0149,Iraq,Iraq,https://ejatlas.org/country/iraq,https://archive.doingbusiness.org/en/data/exploreeconomies/iraq,,45504560,32580810,2.241050141,2.5838204,Iraq,,Iraq,Iraq,Iraq,74515140,,103,'368,,368,http://cosit.gov.iq/english/index.php,,https://lca.logcluster.org/iraq,ASI,,asia
IE,IRL,Ireland,-7.962459878,53.41970825,119,Ireland,Ireland,https://data.worldbank.org/country/ireland?view=chart,Ireland,Ireland,,,,,,,,Ireland,https://www.iea.org/countries/ireland,Ireland,,,,,Ireland,Ireland,Ireland,,,,,,COU-0053,Ireland,Ireland,https://ejatlas.org/country/ireland,https://archive.doingbusiness.org/en/data/exploreeconomies/ireland,,5262382,3392447,2.602992591,3.04293022,Ireland,,,Ireland,Ireland,5798905,,104,'372,,372,http://www.cso.ie,,,EUR,,europe
IL,ISR,Israel,34.63073497,31.39304604,121,Israel,Israel,https://data.worldbank.org/country/israel?view=chart,Israel,Israel,,,,,,,,Israel,https://www.iea.org/countries/israel,Israel,Israel,,,Israel,Israel,Israel,Israel,Israel,,,,,COU-0150,Israel,Israel,https://ejatlas.org/country/israel,https://archive.doingbusiness.org/en/data/exploreeconomies/israel,,9756700,9059486,2.062804191,2.160850054,Israel,,,Israel,Israel,13643700,,105,'376,,376,http://www.cbs.gov.il,,,ASI,,asia
IT,ITA,Italy,12.68346554,42.504228,122,Italy,Italy,https://data.worldbank.org/country/italy?view=chart,Italy,Italy,,,,,,,,Italy,https://www.iea.org/countries/italy,Italy,,,,,Italy,Italy,Italy,,,,,,COU-0055,Italy,Italy,https://ejatlas.org/country/italy,https://archive.doingbusiness.org/en/data/exploreeconomies/italy,,58761146,42292160,-0.304633383,0.135388553,Italy,,,Italy,Italy,51642724,,106,'380,,380,http://www.istat.it/,,,EUR,,europe
JM,JAM,Jamaica,-77.16104289,18.11439991,123,Jamaica,Jamaica,https://data.worldbank.org/country/jamaica?view=chart,Jamaica,Jamaica,https://www.ifad.org/en/web/operations/w/country/jamaica,https://www.caf.com/en/countries/jamaica/,,https://www.iadb.org/en/countries/jamaica/overview,,https://www.caribank.org/countries-and-members/borrowing-members/jamaica,,Jamaica,https://www.iea.org/countries/jamaica,Jamaica,Jamaica,,,Jamaica,Jamaica,Jamaica,Jamaica,Jamaica,Jamaica,Jamaica,,,COU-0056,Jamaica,Jamaica,https://ejatlas.org/country/jamaica,https://archive.doingbusiness.org/en/data/exploreeconomies/jamaica,,2825544,1621241,-0.06485143,0.582110548,Jamaica,https://www.cif.org/country/jamaica,Jamaica,Jamaica,Jamaica,2493823,,109,'388,,388,http://www.statinja.gov.jm/,,https://lca.logcluster.org/jamaica,AME,,north-america
JP,JPN,Japan,143.328632,43.46710265,126,Japan,Japan,https://data.worldbank.org/country/japan?view=chart,Japan,Japan,,,,,,,,Japan,https://www.iea.org/countries/japan,Japan,,,,,Japan,Japan,Japan,,,,,,COU-0057,Japan,Japan,https://ejatlas.org/country/japan,https://archive.doingbusiness.org/en/data/exploreeconomies/japan,/en/japan/164/country-context,124516650,114608860,-0.487370782,-0.391718018,Japan,,,Japan,Japan,104631976,,110,'392,,392,http://www.stat.go.jp,,,ASI,,asia
JO,JOR,Jordan,36.31552652,31.2813465,130,Jordan,Jordan,https://data.worldbank.org/country/jordan?view=chart,Jordan,Jordan,https://www.ifad.org/en/web/operations/w/country/jordan,,,,,,Jordan,Jordan,https://www.iea.org/countries/jordan,Jordan,Jordan,Jordan,,Jordan,Jordan,Jordan,Jordan,Jordan,Jordan,Jordan,JORDAN,https://openknowledge.worldbank.org/handle/10986/38283,COU-0151,Jordan,Jordan,https://ejatlas.org/country/jordan,https://archive.doingbusiness.org/en/data/exploreeconomies/jordan,,11337052,10432355,0.45248876,0.662442921,Jordan,https://www.cif.org/country/jordan,Jordan,Jordan,Jordan,15005941,https://techselector.com/jordan-en/,112,'400,,400,http://www.dos.gov.jo,,https://lca.logcluster.org/jordan,ASI,,asia
KZ,KAZ,Kazakhstan,66.30921584,48.0060885,132,Kazakhstan,Kazakhstan,https://data.worldbank.org/country/kazakhstan?view=chart,Kazakhstan,Kazakhstan,,,,,https://www.adb.org/projects/country/kaz,,Kazakhstan,Kazakhstan,https://www.iea.org/countries/kazakhstan,Kazakhstan,Kazakhstan,Kazakhstan,,Kazakhstan,Kazakhstan,Kazakhstan,Kazakhstan,Kazakhstan,Kazakhstan,,KAZAKHSTAN,https://openknowledge.worldbank.org/handle/10986/38215,COU-0152,Kazakhstan,Kazakhstan,https://ejatlas.org/country/kazakhstan,https://archive.doingbusiness.org/en/data/exploreeconomies/kazakhstan,,19900177,11577724,1.341580393,1.666965746,Kazakhstan,https://www.cif.org/country/kazakhstan,Kazakhstan,Kazakhstan,Kazakhstan,25863816,https://techselector.com/kazakhstan-en/,108,'398,,398,http://www.stat.gov.kz/,,https://lca.logcluster.org/kazakhstan,ASI,1,
KE,KEN,Kenya,37.47425132,-0.031898632,133,Kenya,Kenya,https://data.worldbank.org/country/kenya?view=chart,Kenya,Kenya,https://www.ifad.org/en/web/operations/w/country/kenya,,,,,,,Kenya,https://www.iea.org/countries/kenya,Kenya,Kenya,Kenya,Kenya,Kenya,Kenya,Kenya,Kenya,Kenya,Kenya,Kenya,,https://openknowledge.worldbank.org/entities/publication/b59c453d-c2cb-421d-909d-7c05cb0d4580,COU-0153,Kenya,Kenya,https://ejatlas.org/country/kenya,https://archive.doingbusiness.org/en/data/exploreeconomies/kenya,,55100586,16265693,1.966741573,3.737060907,Kenya,https://www.cif.org/country/kenya,Kenya,Kenya,Kenya,85211739,,114,'404,https://riceforafrica.net/country_site/kenya/,404,http://www.knbs.or.ke/,https://forobs.jrc.ec.europa.eu/static/tmf/factsheets/Kenya.pdf,https://lca.logcluster.org/kenya,AFR,,africa
KI,KIR,Kiribati,-157.6834224,1.880877495,135,Kiribati,Kiribati,https://data.worldbank.org/country/kiribati?view=chart,Kiribati,Kiribati,https://www.ifad.org/en/web/operations/w/country/kiribati,,,,https://www.adb.org/projects/country/kir,,,Kiribati,,Kiribati,Kiribati,,​Kiribati,Kiribati,Kiribati,Kiribati,Kiribati,Kiribati,Kiribati,,,,COU-0059,Kiribati,,,https://archive.doingbusiness.org/en/data/exploreeconomies/kiribati,,133515,77121,1.724708187,2.951549461,Kiribati,https://www.cif.org/country/kiribati,Kiribati,Kiribati,,188570,,83,'296,,296,http://www.spc.int/prism/Country/KI/Stats/,,https://lca.logcluster.org/kiribati,OCE,,oceania
KW,KWT,Kuwait,47.42560017,29.31281505,137,Kuwait,Kuwait,https://data.worldbank.org/country/kuwait?view=chart,Kuwait,Kuwait,,,,,,,,Kuwait,https://www.iea.org/countries/kuwait,Kuwait,Kuwait,,​Kuwait,Kuwait,Kuwait,Kuwait,Kuwait,Kuwait,Kuwait,,,,COU-0155,Kuwait,Kuwait,https://ejatlas.org/country/kuwait,https://archive.doingbusiness.org/en/data/exploreeconomies/kuwait,,4310108,4310108,0.961310383,0.961310383,Kuwait,,,Kuwait,,5155414,,118,'414,,414,http://www.csb.gov.kw/Default_EN.aspx,,https://lca.logcluster.org/kuwait,ASI,,asia
KG,KGZ,Kyrgyzstan,74.99252736,41.2230665,138,Kyrgyzstan,Kyrgyzstan,https://data.worldbank.org/country/kyrgyz-republic?view=chart,Kyrgyz Republic,Kyrgyzstan,https://www.ifad.org/en/web/operations/w/country/kyrgyzstan,,,,https://www.adb.org/projects/country/kgz,,Kyrgyz Republic,Kyrgyzstan,https://www.iea.org/countries/kyrgyzstan,Kyrgyzstan,Kyrgyzstan,,,Kyrgyzstan,Kyrgyzstan,Kyrgyzstan,Kyrgyz Republic,Kyrgyzstan,Kyrgyz Republic,Kyrgyzstan,KYRGYZ REPUBLIC,,COU-0154,Kyrgyzstan,Kyrgyz Republic,https://ejatlas.org/country/kyrgyz-republic,https://archive.doingbusiness.org/en/data/exploreeconomies/kyrgyz-republic,,7100800,2684173,1.788946307,2.692458717,Kyrgyzstan,https://www.cif.org/country/kyrgyz-republic,Kyrgyzstan,Kyrgyz Republic,Kyrgyz Republic,9909988,https://techselector.com/kyrgyzrepublic-en/,113,'417,,417,http://www.stat.kg,,https://lca.logcluster.org/kyrgyzstan,ASI,1,
LA,LAO,Lao People's Democratic Republic,104.6947474,18.20955108,139,Lao,Lao,https://data.worldbank.org/country/lao-pdr?view=chart,Lao PDR,Lao People's Democratic Republic,https://www.ifad.org/en/web/operations/w/country/laos,,,,https://www.adb.org/projects/country/lao,,Lao PDR,Laos,,Lao People's Democratic Republic,Lao People's Democratic Republic,Lao People's Democratic Republic,,Lao People's Democratic Republic,Lao People's Democratic Republic,Lao PDR,Lao People's Democratic Republic,Lao People's Democratic Republic (the),Lao PDR,Lao People's Democratic Republic,,,COU-0062,Laos,Lao PDR,https://ejatlas.org/country/lao-pdr,https://archive.doingbusiness.org/en/data/exploreeconomies/lao-pdr,,7633779,2919691,1.37576862,3.103148018,Lao People's Democratic Republic,https://www.cif.org/country/lao-peoples-democratic-republic,Lao People's Democratic Republic,Lao P.D.R.,Lao PDR,9775552,,120,'418,,418,http://www.lsb.gov.la/,https://forobs.jrc.ec.europa.eu/static/tmf/factsheets/Lao People's Democratic Republic.pdf,https://lca.logcluster.org/lao-peoples-democratic-republic,ASI,1,
LV,LVA,Latvia,24.40933364,56.87987725,140,Latvia,Latvia,https://data.worldbank.org/country/latvia?view=chart,Latvia,Latvia,,,,,,,,Latvia,https://www.iea.org/countries/latvia,Latvia,,,,,Latvia,Latvia,Latvia,,Latvia,,LATVIA,,COU-0069,Latvia,Latvia,https://ejatlas.org/country/latvia,https://archive.doingbusiness.org/en/data/exploreeconomies/latvia,,1881750,1292217,0.125866345,0.316856997,Latvia,,,Latvia,,1460559,https://techselector.com/latvia-en/,119,'428,,428,http://www.csb.lv/,,https://lca.logcluster.org/latvia-limited-lca,EUR,,europe
LB,LBN,Lebanon,35.92468186,33.87251091,141,Lebanon,Lebanon,https://data.worldbank.org/country/lebanon?view=chart,Lebanon,Lebanon,https://www.ifad.org/en/web/operations/w/country/lebanon,,,,,,,Lebanon,https://www.iea.org/countries/lebanon,Lebanon,Lebanon,,,Lebanon,Lebanon,Lebanon,Lebanon,Lebanon,Lebanon,Lebanon,LEBANON,https://openknowledge.worldbank.org/entities/publication/151f45d9-420f-4673-b17b-4b38d8d51fa0,COU-0063,Lebanon,Lebanon,https://ejatlas.org/country/lebanon,https://archive.doingbusiness.org/en/data/exploreeconomies/lebanon,,5353930,4788127,-2.504984273,-2.314711631,Lebanon,,Lebanon,Lebanon,Lebanon,4937579,https://techselector.com/lebanon-en/,121,'422,,422,http://www.cas.gov.lb/,,https://lca.logcluster.org/lebanon,ASI,,asia
LS,LSO,Lesotho,28.17460434,-29.6245376,142,Lesotho,Lesotho,https://data.worldbank.org/country/lesotho?view=chart,Lesotho,Lesotho,https://www.ifad.org/en/web/operations/w/country/lesotho,,,,,,,Lesotho,,Lesotho,Lesotho,,,Lesotho,Lesotho,Lesotho,Lesotho,Lesotho,Lesotho,Lesotho,,,COU-0066,Lesotho,Lesotho,https://ejatlas.org/country/lesotho,https://archive.doingbusiness.org/en/data/exploreeconomies/lesotho,,2330318,708766,1.056620897,2.620649274,Lesotho,https://www.cif.org/country/lesotho,Lesotho,Lesotho,,2898369,,122,'426,,426,http://www.bos.gov.ls/,,https://lca.logcluster.org/lesotho,AFR,1,
LR,LBR,Liberia,-9.684964995,6.452693,144,Liberia,Liberia,https://data.worldbank.org/country/liberia?view=chart,Liberia,Liberia,https://www.ifad.org/en/web/operations/w/country/liberia,,,,,,,Liberia,,Liberia,Liberia,,​Liberia,Liberia,Liberia,Liberia,Liberia,Liberia,Liberia,Liberia,,https://openknowledge.worldbank.org/entities/publication/9daf563f-01ed-4708-9568-ebc8c38c3c5d,COU-0064,Liberia,Liberia,https://ejatlas.org/country/liberia,https://archive.doingbusiness.org/en/data/exploreeconomies/liberia,/en/liberia/128/country-context,5418377,2902462,2.15837824,3.099929307,Liberia,https://www.cif.org/country/liberia,Liberia,Liberia,Liberia,8890700,,123,'430,https://riceforafrica.net/country_site/liberia/,430,http://www.tlcafrica.com/lisgis/lisgis.htm,https://forobs.jrc.ec.europa.eu/static/tmf/factsheets/Liberia.pdf,https://lca.logcluster.org/liberia,AFR,,africa
LY,LBY,Libya,17.2489429,26.33510693,145,Libya,Libya,https://data.worldbank.org/country/libya?view=chart,Libya,Libyan Arab Jamahiriya,,,,,,,,Libya,https://www.iea.org/countries/libya,,Libya,,,Libya,Libya,Libya,Libya,Libya,Libya,,,,COU-0156,Libya,Libya,https://ejatlas.org/country/libya,https://archive.doingbusiness.org/en/data/exploreeconomies/libya,,6888388,5621338,1.110127512,1.483354972,Libya,https://www.cif.org/country/libya,Libya,Libya,,8539976,,124,'434,,434,http://www.bsc.ly/,,https://lca.logcluster.org/libya,AFR,,africa
LT,LTU,Lithuania,24.18378507,55.17338463,147,Lithuania,Lithuania,https://data.worldbank.org/country/lithuania?view=chart,Lithuania,Lithuania,,,,,,,,Lithuania,https://www.iea.org/countries/lithuania,Lithuania,,,,,Lithuania,Lithuania,Lithuania,,Lithuania,,LITHUANIA,,COU-0067,Lithuania,Lithuania,https://ejatlas.org/country/lithuania,https://archive.doingbusiness.org/en/data/exploreeconomies/lithuania,,2871897,1972821,1.411709108,1.745613739,Lithuania,,,Lithuania,,2258486,https://techselector.com/lithuania-en/,126,'440,,440,http://www.stat.gov.lt,,,EUR,,europe
LU,LUX,Luxembourg,6.088686719,49.814496,148,Luxembourg,Luxembourg,https://data.worldbank.org/country/luxembourg?view=chart,Luxembourg,Luxembourg,,,,,,,,Luxembourg,https://www.iea.org/countries/luxembourg,Luxembourg,,,,,Luxembourg,Luxembourg,Luxembourg,,,,,,COU-0068,Luxembourg,,,https://archive.doingbusiness.org/en/data/exploreeconomies/luxembourg,,668606,615639,2.346009755,2.560110602,Luxembourg,,,Luxembourg,Luxembourg,780190,,256,'442,,442,http://www.statec.lu/,,,EUR,,europe
MG,MDG,Madagascar,46.71209012,-18.78248377,150,Madagascar,Madagascar,https://data.worldbank.org/country/madagascar?view=chart,Madagascar,Madagascar,https://www.ifad.org/en/web/operations/w/country/madagascar,,,,,,,Madagascar,https://www.iea.org/countries/madagascar,Madagascar,Madagascar,,Madagascar​,Madagascar,Madagascar,Madagascar,Madagascar,Madagascar,Madagascar,Madagascar,,,COU-0071,Madagascar,Madagascar,https://ejatlas.org/country/madagascar,https://archive.doingbusiness.org/en/data/exploreeconomies/madagascar,,30325732,12298904,2.382656675,4.058519929,Madagascar,https://www.cif.org/country/madagascar,Madagascar,Madagascar,,51592965,,129,'450,https://riceforafrica.net/country_site/madagascar/,450,http://www.instat.mg/,https://forobs.jrc.ec.europa.eu/static/tmf/factsheets/Madagascar.pdf,https://lca.logcluster.org/madagascar,AFR,,africa
MW,MWI,Malawi,33.76051684,-13.24811858,152,Malawi,Malawi,https://data.worldbank.org/country/malawi?view=chart,Malawi,Malawi,https://www.ifad.org/en/web/operations/w/country/malawi,,,,,,,Malawi,,Malawi,Malawi,,,Malawi,Malawi,Malawi,Malawi,Malawi,Malawi,Malawi,,https://openknowledge.worldbank.org/handle/10986/38217,COU-0081,Malawi,Malawi,https://ejatlas.org/country/malawi,https://archive.doingbusiness.org/en/data/exploreeconomies/malawi,,20931751,3826324,2.547168863,4.201920305,Malawi,https://www.cif.org/country/malawi,Malawi,Malawi,Malawi,37159300,,130,'454,https://riceforafrica.net/country_site/malawi/,454,http://www.nsomalawi.mw/,,https://lca.logcluster.org/malawi,AFR,1,
MY,MYS,Malaysia,102.1058939,3.992028595,153,Malaysia,Malaysia,https://data.worldbank.org/country/malaysia?view=chart,Malaysia,Malaysia,,,,,https://www.adb.org/projects/country/mal,,,Malaysia,https://www.iea.org/countries/malaysia,Malaysia,Malaysia,Malaysia,,Malaysia,Malaysia,Malaysia,Malaysia,Malaysia,Malaysia,Malaysia,,,COU-0164,Malaysia,Malaysia,https://ejatlas.org/country/malaysia,https://archive.doingbusiness.org/en/data/exploreeconomies/malaysia,/en/malaysia/78/country-context,34308525,27006299,1.085202316,1.724982553,Malaysia,,Malaysia,Malaysia,Malaysia,41032433,,131,'458,,458,https://www.dosm.gov.my/v1/,https://forobs.jrc.ec.europa.eu/static/tmf/factsheets/Malaysia.pdf,,ASI,,asia
MV,MDV,Maldives,73.56924656,2.107992763,154,Maldives,Maldives,https://data.worldbank.org/country/maldives?view=chart,Maldives,Maldives,https://www.ifad.org/en/web/operations/w/country/maldives,,,,https://www.adb.org/projects/country/mld,,Maldives,Maldives,,Maldives,Maldives,,,Maldives,Maldives,Maldives,Maldives,Maldives,Maldives,Maldives,,,COU-0072,Maldives,Maldives,https://ejatlas.org/country/maldives,https://archive.doingbusiness.org/en/data/exploreeconomies/maldives,,521021,218678,-0.529476509,0.512565365,Maldives,https://www.cif.org/country/maldives,Maldives,Maldives,,569909,,132,'462,,462,http://www.planning.gov.mv/,,https://lca.logcluster.org/es/maldives-limited-lca,ASI,,asia
ML,MLI,Mali,-0.749054384,17.57575258,155,Mali,Mali,https://data.worldbank.org/country/mali?view=chart,Mali,Mali,https://www.ifad.org/en/web/operations/w/mali,,,,,,,Mali,https://www.iea.org/countries/mali,Mali,Mali,Mali,,Mali,Mali,Mali,Mali,Mali,Mali,Mali,,https://openknowledge.worldbank.org/handle/10986/37620,COU-0075,Mali,Mali,https://ejatlas.org/country/mali,https://archive.doingbusiness.org/en/data/exploreeconomies/mali,,23293698,10759126,3.051661415,4.693156939,Mali,https://www.cif.org/country/mali,Mali,Mali,Mali,47439802,,133,'466,https://riceforafrica.net/country_site/mali/,466,http://www.instat-mali.org/,,https://lca.logcluster.org/fr/mali,AFR,1,
MT,MLT,Malta,14.43056928,35.90488925,156,Malta,Malta,https://data.worldbank.org/country/malta?view=chart,Malta,Malta,,,,,,,,Malta,https://www.iea.org/countries/malta,Malta,Malta3,,,,Malta,Malta,Malta,,Malta,,,,COU-0076,Malta,Malta,https://ejatlas.org/country/malta,https://archive.doingbusiness.org/en/data/exploreeconomies/malta,,553214,525227,4.077010215,4.146660615,Malta,,,Malta,,518136,,134,'470,,470,http://www.nso.gov.mt,,,EUR,,europe
MH,MHL,Marshall Islands,171.9546296,6.036102056,157,Marshall Islands,Marshall,https://data.worldbank.org/country/marshall-islands?view=chart,Marshall Islands,Marshall Islands,,,,,https://www.adb.org/projects/country/rmi,,,Marshall Islands,,Marshall Islands,Marshall Islands,,,Marshall Islands,Marshall Islands,Marshall Islands,Marshall Islands,Marshall Islands,Marshall Islands,,,,COU-0074,Marshall Islands,Marshall Islands,https://ejatlas.org/country/marshall-islands,https://archive.doingbusiness.org/en/data/exploreeconomies/marshall-islands,,41996,33121,1.021967849,1.46289922,Marshall Islands,,Marshall Islands,,,51211,,127,'584,,584,http://www.spc.int/prism/country/mh/stats/,,https://lca.logcluster.org/marshall-islands,OCE,,oceania
MR,MRT,Mauritania,-11.48682192,21.01693612,159,Mauritania,Mauritania,https://data.worldbank.org/country/mauritania?view=chart,Mauritania,Mauritania,https://www.ifad.org/en/web/operations/w/country/mauritania,,,,,,,Mauritania,https://www.iea.org/countries/mauritania,Mauritania,Mauritania,,,Mauritania,Mauritania,Mauritania,Mauritania,Mauritania,Mauritania,Mauritania,,https://openknowledge.worldbank.org/handle/10986/37620,COU-0079,Mauritania,Mauritania,https://ejatlas.org/country/mauritania,https://archive.doingbusiness.org/en/data/exploreeconomies/mauritania,,4862989,2805896,2.643102263,3.997152882,Mauritania,,Mauritania,Mauritania,,8914673,,136,'478,,478,http://www.ons.mr,,https://lca.logcluster.org/fr/mauritania,AFR,,africa
MU,MUS,Mauritius,57.58950619,-20.25328878,160,Mauritius,Mauritius,https://data.worldbank.org/country/mauritius?view=chart,Mauritius,Mauritius,https://www.ifad.org/en/web/operations/w/country/mauritius,,,,,,,Mauritius,https://www.iea.org/countries/mauritius,Mauritius,Mauritius,,,Mauritius,Mauritius,Mauritius,Mauritius,Mauritius,Mauritius,Mauritius,,,COU-0080,Mauritius,Mauritius,https://ejatlas.org/country/mauritius,https://archive.doingbusiness.org/en/data/exploreeconomies/mauritius,,1261041,515350,-0.117452949,0.022123336,Mauritius,,Mauritius,,Mauritius,1186505,,137,'480,,480,http://statsmauritius.govmu.org/English/Pages/default.aspx,,,AFR,,africa
MX,MEX,Mexico,-102.2604832,23.62664883,162,Mexico,Mexico,https://data.worldbank.org/country/mexico?view=chart,Mexico,Mexico,https://www.ifad.org/en/web/operations/w/country/mexico,https://www.caf.com/en/countries/mexico/,https://www.bcie.org/en/member-countries/non-regional/mexican-united-states,https://www.iadb.org/en/countries/mexico/overview,,,,Mexico,https://www.iea.org/countries/mexico,Mexico,Mexico,Mexico,,Mexico,Mexico,Mexico,Mexico,Mexico,Mexico,,,,COU-0073,Mexico,Mexico,https://ejatlas.org/country/mexico,https://archive.doingbusiness.org/en/data/exploreeconomies/mexico,,128455567,104796621,0.743434542,1.08969778,Mexico,https://www.cif.org/country/mexico,Mexico,Mexico,Mexico,143772364,,138,'484,,484,http://www.inegi.org.mx/,https://forobs.jrc.ec.europa.eu/static/tmf/factsheets/Mexico.pdf,https://lca.logcluster.org/mexico-limited-port-assessment,AME,,north-america
FM,FSM,Micronesia (Federated States of),158.2390349,6.885104895,163,Micronesia,Micronesia,https://data.worldbank.org/country/micronesia-fed-sts?view=chart,"Micronesia, Fed. Sts.","Micronesia, Federated States of",,,,,https://www.adb.org/projects/country/fsm,,,Micronesia (country),,Micronesia (Federated States of),Micronesia (Federated States of),,,"Micronesia
(Federated States of)",Micronesia (Federated States of),Micronesia,Micronesia,Micronesia (Federated States of),Micronesia,"Micronesia, Federated States of",,,COU-0041,Micronesia,,,https://archive.doingbusiness.org/en/data/exploreeconomies/micronesia,,115224,26938,0.92420488,1.620453474,Micronesia,,Micronesia,,,135457,,145,'583,,583,http://www.fsmgov.org/info/people.html,,https://lca.logcluster.org/micronesia-federated-states,OCE,,oceania
MC,MCO,Monaco,7.423254479,43.736987,166,Monaco,Monaco,https://data.worldbank.org/country/monaco?view=chart,Monaco,Monaco,,,,,,,,,,Monaco,,,,,Monaco,,,,,,,,COU-0070,Monaco,,,,,36297,36297,-0.472749142,-0.472749142,Monaco,,,,,37664,,,,,492,http://www.gouv.mc,,,EUR,,europe
MN,MNG,Mongolia,105.4267758,46.86265559,167,Mongolia,Mongolia,https://data.worldbank.org/country/mongolia?view=chart,Mongolia,Mongolia,https://www.ifad.org/en/web/operations/w/country/mongolia,,,,https://www.adb.org/projects/country/mon,,Mongolia,Mongolia,https://www.iea.org/countries/mongolia,Mongolia,Mongolia,Mongolia,,Mongolia,Mongolia,Mongolia,Mongolia,Mongolia,Mongolia,Mongolia,MONGOLIA,,COU-0163,Mongolia,Mongolia,https://ejatlas.org/country/mongolia,https://archive.doingbusiness.org/en/data/exploreeconomies/mongolia,,3447157,2381606,1.425510548,1.655887627,Mongolia,https://www.cif.org/country/mongolia,Mongolia,Mongolia,Mongolia,4518856,https://techselector.com/mongolia-en/,141,'496,,496,http://www.nso.mn,,https://lca.logcluster.org/mongolia,ASI,1,
ME,MNE,Montenegro,19.29664691,42.701096,2647,Montenegro,Montenegro,https://data.worldbank.org/country/montenegro?view=chart,Montenegro,Montenegro,https://www.ifad.org/en/web/operations/w/country/montenegro,,,,,,,Montenegro,https://www.iea.org/countries/montenegro,Montenegro,Montenegro,,,Montenegro,Montenegro,Montenegro,Montenegro,Montenegro,Montenegro,,MONTENEGRO,,COU-0162,Montenegro,Montenegro,https://ejatlas.org/country/montenegro,https://archive.doingbusiness.org/en/data/exploreeconomies/montenegro,,616177,422094,-0.167992321,0.326763942,Montenegro,,Montenegro,Montenegro,,575065,https://techselector.com/montenegro-en/,273,'499,,499,http://www.monstat.org/,,,EUR,,europe
MA,MAR,Morocco,-6.225799254,31.79190167,169,Morocco,Morocco,https://data.worldbank.org/country/morocco?view=chart,Morocco,Morocco,https://www.ifad.org/en/web/operations/w/country/morocco,,,,,,,Morocco,https://www.iea.org/countries/morocco,Morocco,Morocco,,,Morocco,Morocco,Morocco,Morocco,Morocco,Morocco,Morocco,MOROCCO,https://openknowledge.worldbank.org/handle/10986/38240,COU-0159,Morocco,Morocco,https://ejatlas.org/country/morocco,https://archive.doingbusiness.org/en/data/exploreeconomies/morocco,,37840044,24641815,1.014837587,1.824296,Morocco,https://www.cif.org/country/morocco,Morocco,Morocco,Morocco,45044990,https://techselector.com/morocco-en/,143,'504,,504,http://www.hcp.ma/,,https://lca.logcluster.org/morocco,AFR,,africa
MZ,MOZ,Mozambique,34.68241078,-18.66993332,170,Mozambique,Mozambique,https://data.worldbank.org/country/mozambique?view=chart,Mozambique,Mozambique,https://www.ifad.org/en/web/operations/w/country/mozambique,,,,,,,Mozambique,https://www.iea.org/countries/mozambique,Mozambique,Mozambique,,,Mozambique,Mozambique,Mozambique,Mozambique,Mozambique,Mozambique,,,https://openknowledge.worldbank.org/entities/publication/4afdfdb4-3b04-4716-9ff0-175c76b49097,COU-0078,Mozambique,Mozambique,https://ejatlas.org/country/mozambique,https://archive.doingbusiness.org/en/data/exploreeconomies/mozambique,,33897354,13136242,2.775352062,4.246656719,Mozambique,https://www.cif.org/country/mozambique,Mozambique,Mozambique,Mozambique,63044497,,144,'508,https://riceforafrica.net/country_site/mozambique/,508,http://www.ine.gov.mz/,,https://lca.logcluster.org/mozambique,AFR,,africa
MM,MMR,Myanmar,95.92351217,19.2615125,171,Myanmar,Myanmar,https://data.worldbank.org/country/myanmar?view=chart,Myanmar,Myanmar,https://www.ifad.org/en/web/operations/w/country/myanmar,,,,https://www.adb.org/projects/country/mya,,Myanmar,Myanmar,https://www.iea.org/countries/myanmar,Myanmar,Myanmar,,,Myanmar,Myanmar,Myanmar,Myanmar,Myanmar,Myanmar,Myanmar,,,COU-0077,Myanmar,Myanmar,https://ejatlas.org/country/myanmar,https://archive.doingbusiness.org/en/data/exploreeconomies/myanmar,/en/myanmar/84/country-context,54577997,17526086,0.733178876,1.800765213,Myanmar,,Myanmar,Myanmar,Myanmar,59929399,,28,'104,,104,http://www.csostat.gov.mm/,https://forobs.jrc.ec.europa.eu/static/tmf/factsheets/Myanmar.pdf,https://lca.logcluster.org/myanmar,ASI,,asia
NA,NAM,Namibia,17.24329611,-22.96706581,172,Namibia,Namibia,https://data.worldbank.org/country/namibia?view=chart,Namibia,Namibia,https://www.ifad.org/en/web/operations/w/country/namibia,,,,,,,Namibia,https://www.iea.org/countries/namibia,Namibia,Namibia,Namibia,,Namibia,Namibia,Namibia,Namibia,Namibia,Namibia,Namibia,,,COU-0082,Namibia,Namibia,https://ejatlas.org/country/namibia,https://archive.doingbusiness.org/en/data/exploreeconomies/namibia,,2604172,1429326,1.43721978,3.146171046,Namibia,https://www.cif.org/country/namibia,Namibia,Namibia,Namibia,3779918,,147,'516,,516,http://www.npc.gov.na/cbs/index.htm,,,AFR,,africa
NR,NRU,Nauru,166.9218744,-0.529034018,173,Nauru,Nauru,https://data.worldbank.org/country/nauru?view=chart,Nauru,Nauru,,,,,https://www.adb.org/projects/country/nau,,,Nauru,,Nauru,Nauru,,,Nauru,Nauru,Nauru,,Nauru,Nauru,,,,COU-0087,Nauru,Nauru,https://ejatlas.org/country/nauru,,,12780,12780,0.880232027,0.880232027,Nauru,,Nauru,,,14695,,148,'520,,520,http://www.spc.int/prism/country/nr/stats/,,,OCE,,oceania
NP,NPL,Nepal,83.09391999,28.39726711,175,Nepal,Nepal,https://data.worldbank.org/country/nepal?view=chart,Nepal,Nepal,https://www.ifad.org/en/web/operations/w/country/nepal,,,,https://www.adb.org/projects/country/nep,,Nepal,Nepal,https://www.iea.org/countries/nepal,Nepal,Nepal,,​Nepal,Nepal,Nepal,Nepal,Nepal,Nepal,Nepal,Nepal,,https://openknowledge.worldbank.org/handle/10986/38012,COU-0086,Nepal,Nepal,https://ejatlas.org/country/nepal,https://archive.doingbusiness.org/en/data/exploreeconomies/nepal,,30896590,6767280,1.136035375,3.221274612,Nepal,https://www.cif.org/country/nepal,Nepal,Nepal,Nepal,37401365,,149,'524,,524,http://www.cbs.gov.np/,,https://lca.logcluster.org/nepal,ASI,1,
NL,NLD,Netherlands,5.519014868,52.1120355,177,Netherlands,Netherlands,https://data.worldbank.org/country/netherlands?view=chart,Netherlands,Netherlands,,,,,,,,Netherlands,https://www.iea.org/countries/the-netherlands,Netherlands,,,,,Netherlands (Kingdom of the),Netherlands,Netherlands,,,,,,COU-0166,Netherlands,Netherlands,https://ejatlas.org/country/netherlands,https://archive.doingbusiness.org/en/data/exploreeconomies/netherlands,,17879488,16659928,1.003401572,1.318345648,Netherlands (Kingdom of the),,,,Netherlands,17901108,,150,'528,,528,http://www.cbs.nl/,,,EUR,,europe
NZ,NZL,New Zealand,171.2002714,-43.58626175,179,New Zealand,Zealand,https://data.worldbank.org/country/new-zealand?view=chart,New Zealand,New Zealand,,,,,,,,New Zealand,https://www.iea.org/countries/new-zealand,New Zealand,,,,,New Zealand,New Zealand,New Zealand,,,,,,COU-0088,New Zealand,New Zealand,https://ejatlas.org/country/new-zealand,https://archive.doingbusiness.org/en/data/exploreeconomies/new-zealand,,5223100,4543314,2.048368089,2.164558839,New Zealand,,,New Zealand,New Zealand,5838436,,156,'554,,554,http://www.stats.govt.nz/,,,OCE,,oceania
NI,NIC,Nicaragua,-85.57798638,12.86813355,180,Nicaragua,Nicaragua,https://data.worldbank.org/country/nicaragua?view=chart,Nicaragua,Nicaragua,https://www.ifad.org/en/web/operations/w/country/nicaragua,,https://www.bcie.org/en/member-countries/founders/republic-of-nicaragua,https://www.iadb.org/en/countries/nicaragua/overview,,,,Nicaragua,https://www.iea.org/countries/nicaragua,Nicaragua,Nicaragua,,,Nicaragua,Nicaragua,Nicaragua,Nicaragua,Nicaragua,Nicaragua,Nicaragua,,,COU-0084,Nicaragua,Nicaragua,https://ejatlas.org/country/nicaragua,https://archive.doingbusiness.org/en/data/exploreeconomies/nicaragua,,7046310,4217146,1.399380964,1.890155167,Nicaragua,https://www.cif.org/country/nicaragua,Nicaragua,Nicaragua,Nicaragua,9094641,,157,'558,,558,http://www.inide.gob.ni/,https://forobs.jrc.ec.europa.eu/static/tmf/factsheets/Nicaragua.pdf,https://lca.logcluster.org/nicaragua,AME,,north-america
NE,NER,Niger,9.889039077,17.60797601,181,Niger,Niger,https://data.worldbank.org/country/niger?view=chart,Niger,Niger,https://www.ifad.org/en/web/operations/w/country/niger,,,,,,,Niger,https://www.iea.org/countries/niger,Niger,Niger,,Niger​,Niger,Niger,Niger,Niger,Niger (the),Niger,Niger,,https://openknowledge.worldbank.org/handle/10986/37620,COU-0083,Niger,Niger,https://ejatlas.org/country/niger,https://archive.doingbusiness.org/en/data/exploreeconomies/niger,,27202843,4639173,3.725765982,4.668386162,Niger,https://www.cif.org/country/niger,Niger,Niger,Niger,67043296,,158,'562,https://riceforafrica.net/country_site/niger/,562,http://www.stat-niger.org/,,https://lca.logcluster.org/niger,AFR,1,
NG,NGA,Nigeria,7.967155347,9.085062492,182,Nigeria,Nigeria,https://data.worldbank.org/country/nigeria?view=chart,Nigeria,Nigeria,https://www.ifad.org/en/web/operations/w/country/nigeria,,,,,,,Nigeria,https://www.iea.org/countries/nigeria,Nigeria,Nigeria,,,Nigeria,Nigeria,Nigeria,Nigeria,Nigeria,Nigeria,,,,COU-0165,Nigeria,Nigeria,https://ejatlas.org/country/nigeria,https://archive.doingbusiness.org/en/data/exploreeconomies/nigeria,,223804632,121487868,2.379888269,3.79358823,Nigeria,https://www.cif.org/country/nigeria,Nigeria,Nigeria,Nigeria,377459883,,159,'566,https://riceforafrica.net/country_site/nigeria/,566,http://www.nigerianstat.gov.ng,https://forobs.jrc.ec.europa.eu/static/tmf/factsheets/Nigeria.pdf,https://lca.logcluster.org/nigeria,AFR,,africa
NU,NIU,Niue,-169.852942,-19.04982948,183,Niue,Niue,,,Niue,,,,,https://www.adb.org/projects/country/niu,,,Niue,,Niue,Niue,,,Niue,Niue,,,Niue,Niue,,,,COU-0198,Niue,,,,,,,,,Niue,,Niue,,,,,160,'570,,570,http://www.spc.int/prism/Country/NU/stats/,,,OCE,,oceania
MK,MKD,North Macedonia,21.75007793,41.61336355,,North Macedonia,Macedonia,https://data.worldbank.org/country/north-macedonia?view=chart,North Macedonia,"Macedonia, the former Yugoslav Republic of",https://www.ifad.org/en/web/operations/w/country/north-macedonia,,,,,,,North Macedonia,https://www.iea.org/countries/north-macedonia,North Macedonia,North Macedonia,,,North Macedonia,North Macedonia,North Macedonia,North Macedonia,North Macedonia,North Macedonia,,NORTH MACEDONIA,,COU-0161,"Macedonia, the former Yugoslav Republic of","Macedonia, FYR",https://ejatlas.org/country/macedonia-fyr,https://archive.doingbusiness.org/en/data/exploreeconomies/north-macedonia,,1811980,1077748,-1.083087862,-0.47430919,North Macedonia,https://www.cif.org/country/north-macedonia,North Macedonia,North Macedonia ,,1871174,https://techselector.com/northmacedonia-en/,154,'807,,807,http://www.stat.gov.mk,,,EUR,1,
NO,NOR,Norway,12.65832234,64.55542374,186,Norway,Norway,https://data.worldbank.org/country/norway?view=chart,Norway,Norway,,,,,,,,Norway,https://www.iea.org/countries/norway,Norway,,,,,Norway,Norway,Norway,,,,,,COU-0085,Norway,Norway,https://ejatlas.org/country/norway,https://archive.doingbusiness.org/en/data/exploreeconomies/norway,,5519594,4636183,1.138184607,1.533028771,Norway,,,Norway,Norway,6349137,,162,'578,,578,http://www.ssb.no,,,EUR,,europe
OM,OMN,Oman,56.9902308,20.82993021,187,Oman,Oman,https://data.worldbank.org/country/oman?view=chart,Oman,Oman,,,,,,,Oman,Oman,https://www.iea.org/countries/oman,Oman,Oman (Sultanate of),,,"Oman
(Sultanate of)",Oman,Oman,Oman,Oman,Oman,,,,COU-0167,Oman,,,https://archive.doingbusiness.org/en/data/exploreeconomies/oman,,4644384,4105635,1.476837342,2.214849292,Oman,,Oman,Oman,,6328978,,221,'512,,512,http://www.ncsi.gov.om/NCSI_website/NCSI_EN.aspx,,https://lca.logcluster.org/oman-limited-lca,ASI,,asia
PK,PAK,Pakistan,70.1104545,30.378067,188,Pakistan,Pakistan,https://data.worldbank.org/country/pakistan?view=chart,Pakistan,Pakistan,https://www.ifad.org/en/web/operations/w/country/pakistan,,,,https://www.adb.org/projects/country/pak,,Pakistan,Pakistan,https://www.iea.org/countries/pakistan,Pakistan,Pakistan,Pakistan,,Pakistan,Pakistan,Pakistan,Pakistan,Pakistan,Pakistan,Pakistan,,https://openknowledge.worldbank.org/handle/10986/38277,COU-0089,Pakistan,Pakistan,https://ejatlas.org/country/pakistan,https://archive.doingbusiness.org/en/data/exploreeconomies/pakistan,,240485658,91480744,1.957103432,2.772722736,Pakistan,https://www.cif.org/country/pakistan,Pakistan,Pakistan,Pakistan,367808468,,165,'586,,586,http://www.pbs.gov.pk/,,https://lca.logcluster.org/pakistan,ASI,,asia
PW,PLW,Palau,134.5675221,7.530668497,189,Palau,Palau,https://data.worldbank.org/country/palau?view=chart,Palau,Palau,,,,,https://www.adb.org/projects/country/pal,,,Palau,,Palau,Palau,,,Palau,Palau,Palau,,Palau,Palau,,,,COU-0091,Palau,Palestine,https://ejatlas.org/country/palestine,https://archive.doingbusiness.org/en/data/exploreeconomies/palau,,18058,14881,0.016614516,0.566077393,Palau,,Palau,,,16689,,,585,,585,http://www.palaugov.net/stats/,,https://lca.logcluster.org/palau,OCE,,oceania
PA,PAN,Panama,-81.50289431,8.40745223,191,Panama,Panama,https://data.worldbank.org/country/panama?view=chart,Panama,Panama,https://www.ifad.org/en/web/operations/w/country/panama,https://www.caf.com/en/countries/panama/,https://www.bcie.org/en/member-countries/regional-non-founding-members/republic-of-panama,https://www.iadb.org/en/countries/panama/overview,,,,Panama,https://www.iea.org/countries/panama,Panama,Panama,Panama,,Panama,Panama,Panama,Panama,Panama,Panama,Panama,,,COU-0168,Panama,Panama,https://ejatlas.org/country/panama,https://archive.doingbusiness.org/en/data/exploreeconomies/panama,,4468087,3105857,1.340748384,1.875909942,Panama,,Panama,,Panama,5736121,,166,'591,,591,http://www.contraloria.gob.pa/inec/,https://forobs.jrc.ec.europa.eu/static/tmf/factsheets/Panama.pdf,https://lca.logcluster.org/es/panama,AME,,north-america
PG,PNG,Papua New Guinea,144.3629314,-6.652907012,192,Papua New Guinea,Papua,https://data.worldbank.org/country/papua-new-guinea?view=chart,Papua New Guinea,Papua New Guinea,https://www.ifad.org/en/web/operations/w/country/papua-new-guinea,,,,https://www.adb.org/projects/country/png,,,Papua New Guinea,,Papua New Guinea,Papua New Guinea,,,Papua New Guinea,Papua New Guinea,Papua New Guinea,Papua New Guinea,Papua New Guinea,Papua New Guinea,Papua New Guinea,,,COU-0092,Papua New Guinea,Papua New Guinea,https://ejatlas.org/country/papua-new-guinea,https://archive.doingbusiness.org/en/data/exploreeconomies/papua-new-guinea,/en/papua-new-guinea/90/country-context,10329931,1417576,1.82993547,2.862656734,Papua New Guinea,https://www.cif.org/country/papua-new-guinea,Papua New Guinea,Papua New Guinea,Papua New Guinea,14910369,,168,'598,,598,http://www.nso.gov.pg/,https://forobs.jrc.ec.europa.eu/static/tmf/factsheets/Papua New Guinea.pdf,https://lca.logcluster.org/papua-new-guinea,OCE,,oceania
PY,PRY,Paraguay,-58.48574334,-23.4364305,194,Paraguay,Paraguay,https://data.worldbank.org/country/paraguay?view=chart,Paraguay,Paraguay,https://www.ifad.org/en/web/operations/w/country/paraguay,https://www.caf.com/en/countries/paraguay/,,https://www.iadb.org/en/countries/paraguay/overview,,,,Paraguay,https://www.iea.org/countries/paraguay,Paraguay,Paraguay,,​Paraguay,Paraguay,Paraguay,Paraguay,Paraguay,Paraguay,Paraguay,Paraguay,,,COU-0172,Paraguay,Paraguay,https://ejatlas.org/country/paraguay,https://archive.doingbusiness.org/en/data/exploreeconomies/paraguay,,6861524,4332984,1.184274405,1.709809414,Paraguay,,Paraguay,Paraguay,,8591486,,169,'600,,600,http://www.dgeec.gov.py/,https://forobs.jrc.ec.europa.eu/static/tmf/factsheets/Paraguay.pdf,,AME,1,
PE,PER,Peru,-75.75752798,-9.195541225,195,Peru,Peru,https://data.worldbank.org/country/peru?view=chart,Peru,Peru,https://www.ifad.org/en/web/operations/w/country/peru,https://www.caf.com/en/countries/peru/,,https://www.iadb.org/en/countries/peru/overview,,,,Peru,https://www.iea.org/countries/peru,Peru,Peru,Peru,​Peru,Peru,Peru,Peru,Peru,Peru,Peru,Peru,,https://openknowledge.worldbank.org/handle/10986/38251,COU-0090,Peru,Peru,https://ejatlas.org/country/peru,https://archive.doingbusiness.org/en/data/exploreeconomies/peru,/en/peru/96/country-context,34352719,27111853,0.886323862,1.157845322,Peru,https://www.cif.org/country/peru,Peru,Peru,Peru,42022554,,170,'604,,604,http://www.inei.gob.pe/,https://forobs.jrc.ec.europa.eu/static/tmf/factsheets/Peru.pdf,https://lca.logcluster.org/peru,AME,,south-america
PH,PHL,Philippines,125.2366587,7.689499891,196,Philippines,Philippines,https://data.worldbank.org/country/philippines?view=chart,Philippines,Philippines,https://www.ifad.org/en/web/operations/w/country/philippines,,,,https://www.adb.org/projects/country/phi,,Philippines,Philippines,https://www.iea.org/countries/philippines,Philippines,Philippines,,,Philippines,Philippines,Philippines,Philippines,Philippines (the),Philippines,,,https://openknowledge.worldbank.org/handle/10986/38280,COU-0169,Philippines,Philippines,https://ejatlas.org/country/philippines,https://archive.doingbusiness.org/en/data/exploreeconomies/philippines,/en/philippines/165/country-context,117337368,56658695,1.527197277,2.171261412,Philippines,https://www.cif.org/country/philippines,Philippines,,Philippines,157891622,,171,'608,,608,http://www.psa.gov.ph/,https://forobs.jrc.ec.europa.eu/static/tmf/factsheets/Philippines.pdf,https://lca.logcluster.org/philippines,ASI,,asia
PL,POL,Poland,19.15649926,51.9188425,198,Poland,Poland,https://data.worldbank.org/country/poland?view=chart,Poland,Poland,,,,,,,,Poland,https://www.iea.org/countries/poland,Poland,,,,,Poland,Poland,Poland,,Poland,,POLAND,,COU-0170,Poland,Poland,https://ejatlas.org/country/poland,https://archive.doingbusiness.org/en/data/exploreeconomies/poland,,36685849,22091485,-0.369758116,-0.230167587,Poland,,,Poland,Poland,29843506,https://techselector.com/poland-en/,173,'616,,616,http://www.stat.gov.pl/,,https://lca.logcluster.org/poland-ukraine-response,EUR,,europe
PT,PRT,Portugal,-8.270238692,39.56703,199,Portugal,Portugal,https://data.worldbank.org/country/portugal?view=chart,Portugal,Portugal,,https://www.caf.com/en/countries/portugal/,,,,,,Portugal,https://www.iea.org/countries/portugal,Portugal,,,,,Portugal,Portugal,Portugal,,,,,,COU-0093,Portugal,Portugal,https://ejatlas.org/country/portugal,https://archive.doingbusiness.org/en/data/exploreeconomies/portugal,,10525347,7147342,1.104790012,1.880914865,Portugal,,,Portugal,Portugal,9316816,,174,'620,,620,http://www.ine.pt/,,,EUR,,europe
QA,QAT,Qatar,51.14692566,25.31491084,201,Qatar,Qatar,https://data.worldbank.org/country/qatar?view=chart,Qatar,Qatar,,,,,,,,Qatar,https://www.iea.org/countries/qatar,Qatar,Qatar,,,Qatar,Qatar,Qatar,Qatar,Qatar,,,,,COU-0174,Qatar,,,https://archive.doingbusiness.org/en/data/exploreeconomies/qatar,,2716391,2698843,0.786068869,0.822315289,Qatar,,,Qatar,,3358454,,179,'634,,634,http://www.qsa.gov.qa/eng/index.htm,,,ASI,,asia
KR,KOR,Republic of Korea,127.9629008,36.45140937,202,Republic of Korea,Korea,https://data.worldbank.org/country/korea-rep?view=chart,"Korea, Rep.",Republic of Korea,,,https://www.bcie.org/en/member-countries/non-regional/republic-of-korea,,https://www.adb.org/projects/country/kor,,,South Korea,https://www.iea.org/countries/korea,Republic of Korea,Republic of Korea,,,Republic of Korea,Republic of Korea,Korea Republic of,Korea. Republic of,Republic of Korea (the),Republic Of Korea,,,,COU-0061,South Korea,Republic of Korea,https://ejatlas.org/country/republic-of-korea,https://archive.doingbusiness.org/en/data/exploreeconomies/korea,,51712619,42123031,0.077477253,0.113085224,Republic of Korea,,,"Korea, Republic of","Korea, Republic of",44893100,,117,'410,,410,http://kostat.go.kr,,,ASI,,asia
MD,MDA,Moldova,28.84598848,46.9796275,165,Republic of Moldova,Moldova,https://data.worldbank.org/country/moldova?view=chart,Moldova,"Moldova, Republic of",https://www.ifad.org/en/web/operations/w/country/moldova,,,,,,,Moldova,https://www.iea.org/countries/moldova,Republic of Moldova,Republic of Moldova,Republic of Moldova,,Republic of Moldova,Republic of Moldova,Moldova Republic of,Moldova,Moldova,Moldova,"Moldova, Republic of",MOLDOVA,,COU-0160,"Moldova, Republic of",,,https://archive.doingbusiness.org/en/data/exploreeconomies/moldova,,2486891,1078639,-2.069521718,-1.60738734,Republic of Moldova,,Moldova,Moldova,Moldova,1982210,https://techselector.com/moldova-en/,146,'498,,498,http://www.statistica.md/?lang=en,,https://lca.logcluster.org/moldova,EUR,1,
RO,ROU,Romania,24.30310977,45.9408805,203,Romania,Romania,https://data.worldbank.org/country/romania?view=chart,Romania,Romania,https://www.ifad.org/en/web/operations/w/country/romania,,,,,,,Romania,https://www.iea.org/countries/romania,Romania,,,,,Romania,Romania,Romania,,Romania,,ROMANIA,https://openknowledge.worldbank.org/entities/publication/b6dfeaca-c430-4877-9f2c-547885bf9cc1,COU-0175,Romania,Romania,https://ejatlas.org/country/romania,https://archive.doingbusiness.org/en/data/exploreeconomies/romania,,19056116,10418360,0.047801854,0.383086685,Romania,,,Romania,Romania,16249819,https://techselector.com/romania-en/,183,'642,,642,http://www.insse.ro/,,https://lca.logcluster.org/romania-ukraine-response,EUR,,europe
RU,RUS,Russian Federation,87.25878572,59.45973528,204,Russian Federation,Russian,https://data.worldbank.org/country/russian-federation?view=chart,Russian Federation,Russian Federation,,,,,,,Russian Federation,Russia,https://www.iea.org/countries/russia,Russian Federation,,,,,Russian Federation,Russian Federation,Russia,,Russian Federation,,RUSSIAN FEDERATION,,COU-0176,Russian Federation,Russian Federation,https://ejatlas.org/country/russia,https://archive.doingbusiness.org/en/data/exploreeconomies/russia,/en/russia/102/country-context,143826130,108345662,-0.285217601,-0.012714052,Russian Federation,,,Russian Federation,Russian Federation,132064640,,185,'643,,643,http://www.gks.ru,,,EUR,,europe
RW,RWA,Rwanda,29.96937605,-1.944207673,205,Rwanda,Rwanda,https://data.worldbank.org/country/rwanda?view=chart,Rwanda,Rwanda,https://www.ifad.org/en/web/operations/w/country/rwanda,,,,,,Rwanda,Rwanda,https://www.iea.org/countries/rwanda,Rwanda,Rwanda,Rwanda,,Rwanda,Rwanda,Rwanda,Rwanda,Rwanda,Rwanda,Rwanda,,https://openknowledge.worldbank.org/handle/10986/38067,COU-0094,Rwanda,Rwanda,https://ejatlas.org/country/rwanda,https://archive.doingbusiness.org/en/data/exploreeconomies/rwanda,,14094683,2521821,2.281901984,3.242231207,Rwanda,https://www.cif.org/country/rwanda,Rwanda,Rwanda,Rwanda,23030046,,184,'646,https://riceforafrica.net/country_site/rwanda/,646,http://www.statistics.gov.rw/,,https://lca.logcluster.org/rwanda,AFR,1,
KN,KNA,Saint Kitts and Nevis,-62.74838913,17.31718458,208,Saint Kitts and Nevis,Kitts,https://data.worldbank.org/country/st-kitts-and-nevis?view=chart,St. Kitts and Nevis,Saint Kitts and Nevis,,,,,,https://www.caribank.org/countries-and-members/borrowing-members/saint-kitts-and-nevis,,Saint Kitts and Nevis,,Saint Kitts and Nevis,Saint Kitts and Nevis,,,Saint Kitts and Nevis,Saint Kitts and Nevis,Saint Kitts and Nevis,St. Kitts and Nevis,Saint Kitts and Nevis,St. Kitts And Nevis,,,,COU-0060,Saint Kitts and Nevis,,,https://archive.doingbusiness.org/en/data/exploreeconomies/st-kitts-and-nevis,,47755,14850,0.205424966,0.54694758,Saint Kitts and Nevis,,Saint Kitts and Nevis,Saint Kitts and Nevis,St. Kitts and Nevis,46882,,188,'659,,659,,,,AME,,north-america
LC,LCA,Saint Lucia,-60.97638017,13.90352964,209,Saint Lucia,Lucia,https://data.worldbank.org/country/st-lucia?view=chart,St. Lucia,Saint Lucia,https://www.ifad.org/en/web/operations/w/country/saint-lucia,,,,,https://www.caribank.org/countries-and-members/borrowing-members/saint-lucia,,Saint Lucia,,Saint Lucia,Saint Lucia,Saint Lucia,​Saint Lucia,Saint Lucia,Saint Lucia,Saint Lucia,St. Lucia,Saint Lucia,St. Lucia,Saint Lucia,,,COU-0065,Saint Lucia,St. Lucia,https://ejatlas.org/country/st-lucia,https://archive.doingbusiness.org/en/data/exploreeconomies/st-lucia,,180251,34558,0.218823329,0.857301715,Saint Lucia,https://www.cif.org/country/st-lucia,Saint Lucia,Saint Lucia,St. Lucia,177856,,189,'662,,662,http://www.stats.gov.lc/,,,AME,,north-america
VC,VCT,Saint Vincent and the Grenadines,-61.19570938,13.24618053,211,Saint Vincent and the Grenadines,Vincent,https://data.worldbank.org/country/st-vincent-and-the-grenadines?view=chart,St. Vincent and the Grenadines,Saint Vincent and the Grenadines,https://www.ifad.org/en/web/operations/w/country/saint-vincent-and-the-grenadines,,,,,https://www.caribank.org/countries-and-members/borrowing-members/saint-vincent-and-grenadines,,Saint Vincent and the Grenadines,,Saint Vincent and the Grenadines,Saint Vincent and the Grenadines,,​Saint Vincent and the Grenadines,Saint Vincent and the Grenadines,Saint Vincent and the Grenadines,Saint Vincent and the Grenadines,St. Vincent and the Grenadines,Saint Vincent and the Grenadines,St. Vincent and Grenadines,,,,COU-0113,Saint Vincent and the Grenadines,,,https://archive.doingbusiness.org/en/data/exploreeconomies/st-vincent-and-the-grenadines,,103698,56307,-0.240794545,0.543145696,Saint Vincent and the Grenadines,https://www.cif.org/country/st-vincent-grenadines,Saint Vincent and the Grenadines,Saint Vincent and the Grenadines,St. Vincent and the Grenadines,101691,,191,'670,,670,,,https://lca.logcluster.org/saint-vincent-and-grenadines,AME,,north-america
WS,WSM,Samoa,-172.4359337,-13.61695194,212,Samoa,Samoa,https://data.worldbank.org/country/samoa?view=chart,Samoa,Samoa,https://www.ifad.org/en/web/operations/w/country/samoa,,,,https://www.adb.org/projects/country/sam,,,Samoa,,Samoa,Samoa,Samoa,,Samoa,Samoa,Samoa,Samoa,Samoa,Samoa,Samoa,,,COU-0115,Samoa,,,https://archive.doingbusiness.org/en/data/exploreeconomies/samoa,,225681,39512,1.472587389,0.8565635,Samoa,https://www.cif.org/country/samoa,Samoa,Samoa,,320016,,244,'882,,882,http://www.sbs.gov.ws/,,https://lca.logcluster.org/samoa,OCE,,oceania
SM,SMR,San Marino,12.46041614,43.9435765,213,San Marino,Marino,https://data.worldbank.org/country/san-marino?view=chart,San Marino,San Marino,,,,,,,,San Marino,,San Marino,San Marino,,,San Marino,San Marino,,,San Marino,,,,,COU-0180,San Marino,,,https://archive.doingbusiness.org/en/data/exploreeconomies/san-marino,,33642,32914,-0.053490239,0.051663097,San Marino,,,San Marino,,32044,,,674,,674,http://www.upeceds.sm/,,,EUR,,europe
ST,STP,Sao Tome and Principe,6.605539552,0.2226495,214,Sao Tome and Principe,Tome,https://data.worldbank.org/country/sao-tome-and-principe?view=chart,Sao Tome and Principe,Sao Tome and Principe,https://www.ifad.org/en/web/operations/w/country/sao-tome-and-principe,,,,,,,Sao Tome and Principe,,Sao Tome and Principe,Sao Tome and Principe,,,Sao Tome and Principe,Sao Tome and Principe,Sao Tome and Principe,,Sao Tome and Principe,Sao Tome and Principe,,,,COU-0098,Sao Tome and Principe,Sao Tome and Principe,https://ejatlas.org/country/sao-tome-and-principe,https://archive.doingbusiness.org/en/data/exploreeconomies/sao-tome-and-principe,,231856,177140,1.94938626,2.798185952,Sao Tome and Principe,,Sao Tome and Principe,São Tomé and Príncipe,,366663,,193,'678,,678,http://www.ine.st/,,,AFR,,africa
SA,SAU,Saudi Arabia,44.62050639,24.26691834,215,Saudi Arabia,Saudi,https://data.worldbank.org/country/saudi-arabia?view=chart,Saudi Arabia,Saudi Arabia,,,,,,,,Saudi Arabia,https://www.iea.org/countries/saudi-arabia,Saudi Arabia,Saudi Arabia,,,Saudi Arabia,Saudi Arabia,Saudi Arabia,Saudi Arabia,Saudi Arabia,Saudi Arabia,,,,COU-0177,Saudi Arabia,Saudi Arabia,https://ejatlas.org/country/saudi-arabia,https://archive.doingbusiness.org/en/data/exploreeconomies/saudi-arabia,,36947025,31386498,1.467407696,1.727900867,Saudi Arabia,,Saudi Arabia,Saudi Arabia,,48374543,,194,'682,,682,https://www.stats.gov.sa/en,,https://lca.logcluster.org/saudi-arabia,ASI,,asia
SN,SEN,Senegal,-14.6559946,14.49992648,217,Senegal,Senegal,https://data.worldbank.org/country/senegal?view=chart,Senegal,Senegal,https://www.ifad.org/en/web/operations/w/country/senegal,,,,,,,Senegal,https://www.iea.org/countries/senegal,Senegal,Senegal,,,Senegal,Senegal,Senegal,Senegal,Senegal,Senegal,Senegal,,,COU-0095,Senegal,Senegal,https://ejatlas.org/country/senegal,https://archive.doingbusiness.org/en/data/exploreeconomies/senegal,,17763163,8806799,2.546995953,3.546352039,Senegal,,Senegal,Senegal,Senegal,32562869,,195,'686,https://riceforafrica.net/country_site/senegal/,686,http://www.ansd.sn/,,https://lca.logcluster.org/senegal,AFR,,africa
RS,SRB,Serbia,21.07608896,44.02300193,2648,Serbia,Serbia,https://data.worldbank.org/country/serbia?view=chart,Serbia,Serbia,,,,,,,,Serbia,https://www.iea.org/countries/serbia,Serbia,Serbia,Serbia,,Serbia,Serbia,Serbia,Serbia,Serbia,Serbia,,SERBIA,,COU-0182,Serbia,Serbia,https://ejatlas.org/country/serbia,https://archive.doingbusiness.org/en/data/exploreeconomies/serbia,,6618026,3779753,-0.699014137,-0.277912075,Serbia,,Serbia,Serbia,Serbia,5298996,https://techselector.com/serbia-en/,272,'688,,688,http://webrzs.stat.gov.rs/WebSite/,,,EUR,,europe
SC,SYC,Seychelles,46.36143891,-9.348146438,220,Seychelles,Seychelles,https://data.worldbank.org/country/seychelles?view=chart,Seychelles,Seychelles,https://www.ifad.org/en/web/operations/w/country/seychelles,,,,,,,Seychelles,,Seychelles,Seychelles,,,Seychelles,Seychelles,Seychelles,Seychelles,Seychelles,Seychelles,Seychelles,,,COU-0103,Seychelles,,,https://archive.doingbusiness.org/en/data/exploreeconomies/seychelles,,119773,70450,-0.08762743,0.635085507,Seychelles,,Seychelles,Seychelles,,130881,,196,'690,,690,http://www.nsb.gov.sc/,,,AFR,,africa
SL,SLE,Sierra Leone,-11.87612167,8.460672717,221,Sierra Leone,Leone,https://data.worldbank.org/country/sierra-leone?view=chart,Sierra Leone,Sierra Leone,https://www.ifad.org/en/web/operations/w/country/sierra-leone,,,,,,,Sierra Leone,,Sierra Leone,Sierra Leone,Sierra Leone,​Sierra Leone,Sierra Leone,Sierra Leone,Sierra Leone,Sierra Leone,Sierra Leone,Sierra Leone,Sierra Leone,,,COU-0097,Sierra Leone,Sierra Leone,https://ejatlas.org/country/sierra-leone,https://archive.doingbusiness.org/en/data/exploreeconomies/sierra-leone,,8791092,3894454,2.131207002,3.195554815,Sierra Leone,,Sierra Leone,Sierra Leone,,13595023,,197,'694,https://riceforafrica.net/country_site/sierra-leone/,694,http://www.statistics.sl/,https://forobs.jrc.ec.europa.eu/static/tmf/factsheets/Sierra Leone.pdf,https://lca.logcluster.org/sierra-leone,AFR,,africa
SG,SGP,Singapore,103.8282123,1.365628004,222,Singapore,Singapore,https://data.worldbank.org/country/singapore?view=chart,Singapore,Singapore,,,,,https://www.adb.org/projects/country/sin,,Singapore,Singapore,https://www.iea.org/countries/singapore,Singapore,Singapore,,,Singapore,Singapore,Singapore,Singapore,Singapore,,,,,COU-0196,Singapore,,,https://archive.doingbusiness.org/en/data/exploreeconomies/singapore,,5917648,5917648,4.858316078,4.858316078,Singapore,,,Singapore,,5934326,,200,'702,,702,http://www.singstat.gov.sg/,,,ASI,,asia
SK,SVK,Slovakia,19.63656255,48.6725485,223,Slovakia,Slovakia,https://data.worldbank.org/country/slovak-republic?view=chart,Slovak Republic,Slovakia,,,,,,,,Slovakia,https://www.iea.org/countries/slovak-republic,Slovakia,,,,,Slovakia,Slovakia,Slovak Republic,,Slovak Republic,,SLOVAK REPUBLIC,,COU-0100,Slovakia,Slovak Republic,https://ejatlas.org/country/slovak-republic,https://archive.doingbusiness.org/en/data/exploreeconomies/slovakia,,5426740,2931905,-0.092314851,0.126345811,Slovakia,,,Slovak Republic,Slovak Republic,4688560,https://techselector.com/slovakia-en/,199,'703,,703,http://www.statistics.sk,,,EUR,,europe
SI,SVN,Slovenia,14.62568338,46.14870747,224,Slovenia,Slovenia,https://data.worldbank.org/country/slovenia?view=chart,Slovenia,Slovenia,,,,,,,,Slovenia,https://www.iea.org/countries/slovenia,Slovenia,,,,,Slovenia,Slovenia,Slovenia,,Slovenia,,SLOVENIA,,COU-0101,Slovenia,Slovenia,https://ejatlas.org/country/slovenia,https://archive.doingbusiness.org/en/data/exploreeconomies/slovenia,,2120937,1189591,0.422923514,1.025591953,Slovenia,,Slovenia,Slovenia,,1981948,https://techselector.com/slovenia-en/,198,'705,,705,http://www.stat.si,,,EUR,,europe
SB,SLB,Solomon Islands,160.1422263,-9.596159457,225,Solomon Islands,Solomon,https://data.worldbank.org/country/solomon-islands?view=chart,Solomon Islands,Solomon Islands,https://www.ifad.org/en/web/operations/w/country/solomon-islands,,,,https://www.adb.org/projects/country/sol,,,Solomon Islands,,Solomon Islands,Solomon Islands,,,Solomon Islands,Solomon Islands,Solomon Islands,Solomon Islands,Solomon Islands,Solomon Islands,Solomon Islands,,,COU-0096,Solomon Islands,Solomon Islands,https://ejatlas.org/country/solomon-islands,https://archive.doingbusiness.org/en/data/exploreeconomies/solomon-islands,/en/solomon-islands/129/country-context,740424,192784,2.205460195,3.960505126,Solomon Islands,https://www.cif.org/country/solomon-islands,Solomon Islands,Solomon Islands,Solomon Islands,1225407,,25,'090,,90,http://www.spc.int/prism/country/sb/stats/,https://forobs.jrc.ec.europa.eu/static/tmf/factsheets/Solomon Islands.pdf,https://lca.logcluster.org/solomon-islands,OCE,,oceania
SO,SOM,Somalia,46.8055454,5.158806093,226,Somalia,Somalia,https://data.worldbank.org/country/somalia?view=chart,Somalia,Somalia,https://www.ifad.org/en/web/operations/w/country/somalia,,,,,,,Somalia,,Somalia,Somalia,,,Somalia,Somalia,Somalia,,Somalia,Somalia,,,,COU-0181,Somalia,Somalia,https://ejatlas.org/country/somalia,https://archive.doingbusiness.org/en/data/exploreeconomies/somalia,,18143378,8694307,3.054817406,4.306360435,Somalia,,Somalia,,,36462830,,201,'706,,706,,,https://lca.logcluster.org/somalia,AFR,,africa
ZA,ZAF,South Africa,26.12794001,-28.47961008,227,South Africa,South Africa,https://data.worldbank.org/country/south-africa?view=chart,South Africa,South Africa,,,,,,,,South Africa,https://www.iea.org/countries/south-africa,South Africa,South Africa,South Africa,​South Africa,South Africa,South Africa,South Africa,South Africa,South Africa,South Africa,South Africa,,https://openknowledge.worldbank.org/handle/10986/38216,COU-0117,South Africa,South Africa,https://ejatlas.org/country/south-africa,https://archive.doingbusiness.org/en/data/exploreeconomies/south-africa,,60414495,41576651,0.865464649,1.571243582,South Africa,https://www.cif.org/country/south-africa,South Africa,South Africa,South Africa,73529753,,202,'710,,710,http://www.statssa.gov.za,,https://lca.logcluster.org/south-africa,AFR,,africa
SS,SSD,South Sudan,29.11916721,7.860130789,74,South Sudan,South Sudan,https://data.worldbank.org/country/south-sudan?view=chart,South Sudan,South Sudan,https://www.ifad.org/en/web/operations/w/country/south-sudan,,,,,,,South Sudan,https://www.iea.org/countries/south-sudan,South Sudan,South Sudan,,​South Sudan,South Sudan,South Sudan,South Sudan,South Sudan,South Sudan,South Sudan,,,,COU-0195,South Sudan,South Sudan,https://ejatlas.org/country/south-sudan,https://archive.doingbusiness.org/en/data/exploreeconomies/south-sudan,,11088796,2350270,1.596546223,3.256862448,South Sudan,,South Sudan,"South Sudan, Republic of",,17460846,,277,'728,,728,http://ssnbs.org/,,https://lca.logcluster.org/south-sudan-republic,AFR,1,
ES,ESP,Spain,-3.455955503,39.90328027,229,Spain,Spain,https://data.worldbank.org/country/spain?view=chart,Spain,Spain,,https://www.caf.com/en/countries/spain/,https://www.bcie.org/en/member-countries/non-regional/kingdom-of-spain,,,,,Spain,https://www.iea.org/countries/spain,Spain,,,,,Spain,Spain,Spain,,,,,,COU-0035,Spain,Spain,https://ejatlas.org/country/spain,https://archive.doingbusiness.org/en/data/exploreeconomies/spain,,48373336,39449423,1.23763541,1.542198101,Spain,,,Spain,Spain,43952896,,203,'724,,724,http://www.ine.es/,,,EUR,,europe
LK,LKA,Sri Lanka,80.66274938,7.876565996,231,Sri Lanka,Lanka,https://data.worldbank.org/country/sri-lanka?view=chart,Sri Lanka,Sri Lanka,https://www.ifad.org/en/web/operations/w/country/sri-lanka,,,,https://www.adb.org/projects/country/sri,,Sri Lanka,Sri Lanka,https://www.iea.org/countries/sri-lanka,Sri Lanka,Sri Lanka,Sri Lanka,Sri Lanka,Sri Lanka,Sri Lanka,Sri Lanka,Sri Lanka,Sri Lanka,Sri Lanka,Sri Lanka,,,COU-0158,Sri Lanka,Sri Lanka,https://ejatlas.org/country/sri-lanka,https://archive.doingbusiness.org/en/data/exploreeconomies/sri-lanka,,22037000,4233528,-0.65132077,0.316335684,Sri Lanka,,Sri Lanka,Sri Lanka,Sri Lanka,22112856,,38,'144,,144,http://www.statistics.gov.lk/,https://forobs.jrc.ec.europa.eu/static/tmf/factsheets/Sri Lanka.pdf,https://lca.logcluster.org/sri-lanka,ASI,,asia
SD,SDN,Sudan,29.79145867,15.43264398,6,Sudan,Sudan,https://data.worldbank.org/country/sudan?view=chart,Sudan,Sudan,https://www.ifad.org/en/web/operations/w/country/sudan,,,,,,,Sudan,https://www.iea.org/countries/sudan,Sudan,Sudan,Sudan,Sudan,Sudan,Sudan,Sudan,Sudan,Sudan,Sudan,,,,COU-0178,Sudan,Sudan,https://ejatlas.org/country/sudan,https://archive.doingbusiness.org/en/data/exploreeconomies/sudan,,48109006,17483775,2.60018917,3.668001003,Sudan,,Sudan,Sudan,,84494269,,276,'729,https://riceforafrica.net/country_site/sudan/,729,http://www.cbs.gov.sd,,https://lca.logcluster.org/sudan,AFR,,africa
SR,SUR,Suriname,-56.0930212,3.917542271,233,Suriname,Suriname,https://data.worldbank.org/country/suriname?view=chart,Suriname,Suriname,https://www.ifad.org/en/web/operations/w/country/suriname,,,https://www.iadb.org/en/countries/suriname/overview,,https://www.caribank.org/countries-and-members/borrowing-members/suriname,,Suriname,https://www.iea.org/countries/suriname,Suriname,Suriname,Suriname,​Suriname,Suriname,Suriname,Suriname,Suriname,Suriname,Suriname,,,,COU-0099,Suriname,Suriname,https://ejatlas.org/country/suriname,https://archive.doingbusiness.org/en/data/exploreeconomies/suriname,/en/suriname/108/country-context,623236,413897,0.837207897,0.993815398,Suriname,,Suriname,Suriname,Suriname,725519,,207,'740,,740,http://www.statistics-suriname.org,https://forobs.jrc.ec.europa.eu/static/tmf/factsheets/Suriname.pdf,,AME,,south-america
SE,SWE,Sweden,14.90055222,62.19916344,236,Sweden,Sweden,https://data.worldbank.org/country/sweden?view=chart,Sweden,Sweden,,,,,,,,Sweden,https://www.iea.org/countries/sweden,Sweden,,,,,Sweden,Sweden,Sweden,,,,,,COU-0102,Sweden,Sweden,https://ejatlas.org/country/sweden,https://archive.doingbusiness.org/en/data/exploreeconomies/sweden,,10536632,9349997,0.472717863,0.750326881,Sweden,,,Sweden,Sweden,11778568,,210,'752,,752,http://www.scb.se/,,,EUR,,europe
CH,CHE,Switzerland,8.444413513,46.81310475,237,Switzerland,Switzerland,https://data.worldbank.org/country/switzerland?view=chart,Switzerland,Switzerland,,,,,,,,Switzerland,https://www.iea.org/countries/switzerland,Switzerland,,,,,Switzerland,Switzerland,Switzerland,,,,,,COU-0017,Switzerland,Switzerland,https://ejatlas.org/country/switzerland,https://archive.doingbusiness.org/en/data/exploreeconomies/switzerland,,8849852,6566767,0.840736043,0.989088784,Switzerland,,,Switzerland,Switzerland,9691556,,211,'756,,756,http://www.bfs.admin.ch,,,EUR,,europe
SY,SYR,Syrian Arab Republic,38.56691603,34.81887927,238,Syria,Syria,https://data.worldbank.org/country/syrian-arab-republic?view=chart,Syrian Arab Republic,Syrian Arab Republic,https://www.ifad.org/en/web/operations/w/country/syria,,,,,,,Syria,https://www.iea.org/countries/syria,Syrian Arab Republic,Syrian Arab Republic,Syrian Arab Republic,,Syrian Arab Republic,Syrian Arab Republic,Syria,,Syrian Arab Republic,Syria,Syrian Arab Republic,,,COU-0184,Syrian Arab Republic,Syrian Arab Republic,https://ejatlas.org/country/syrian-arab-republic,https://archive.doingbusiness.org/en/data/exploreeconomies/syria,,23227014,13334396,4.859655277,5.980716964,Syrian Arab Republic,,Syrian Arab Republic,Syria,,38306374,,212,'760,,760,http://www.cbssyr.org,,https://lca.logcluster.org/syrian-arab-republic,ASI,,asia
TJ,TJK,Tajikistan,70.95145084,38.8590975,239,Tajikistan,Tajikistan,https://data.worldbank.org/country/tajikistan?view=chart,Tajikistan,Tajikistan,https://www.ifad.org/en/web/operations/w/country/tajikistan,,,,https://www.adb.org/projects/country/taj,,Tajikistan,Tajikistan,https://www.iea.org/countries/tajikistan,Tajikistan,Tajikistan,,,Tajikistan,Tajikistan,Tajikistan,Tajikistan,Tajikistan,Tajikistan,Tajikistan,TAJIKISTAN,,COU-0186,Tajikistan,Tajikistan,https://ejatlas.org/country/tajikistan,https://archive.doingbusiness.org/en/data/exploreeconomies/tajikistan,,10143543,2863928,1.898473297,2.845085137,Tajikistan,https://www.cif.org/country/tajikistan,Tajikistan,,Tajikistan,15200989,https://techselector.com/tajikistan-en/,208,'762,,762,http://www.stat.tj/,,https://lca.logcluster.org/tajikistan,ASI,1,
TZ,TZA,United Republic of Tanzania,34.23011946,-6.37279412,257,Tanzania,Tanzania,https://data.worldbank.org/country/tanzania?view=chart,Tanzania,"Tanzania, United Republic of",https://www.ifad.org/en/web/operations/w/country/tanzania,,,,,,,Tanzania,https://www.iea.org/countries/tanzania,United Republic of Tanzania,United Republic of Tanzania,,,United Republic of Tanzania,United Republic of Tanzania,Tanzania,Tanzania,Tanzania,Tanzania,"Tanzania, United Republic of",,,COU-0190,Tanzania,Tanzania,https://ejatlas.org/country/tanzania,https://archive.doingbusiness.org/en/data/exploreeconomies/tanzania,,67438106,25227921,2.919446871,4.881960817,United Republic of Tanzania,https://www.cif.org/country/tanzania,Tanzania,,Tanzania,129931520,,215,'834,https://riceforafrica.net/country_site/tanzania/,834,http://www.nbs.go.tz/,https://forobs.jrc.ec.europa.eu/static/tmf/factsheets/United Republic of Tanzania.pdf,https://lca.logcluster.org/tanzania-united-republic,AFR,,africa
TH,THA,Thailand,101.7023691,13.03884195,240,Thailand,Thailand,https://data.worldbank.org/country/thailand?view=chart,Thailand,Thailand,https://www.ifad.org/en/web/operations/w/country/thailand,,,,https://www.adb.org/projects/country/tha,,Thailand,Thailand,https://www.iea.org/countries/thailand,Thailand,Thailand,Thailand,,Thailand,Thailand,Thailand,Thailand,Thailand,Thailand,,,,COU-0185,Thailand,Thailand,https://ejatlas.org/country/thailand,https://archive.doingbusiness.org/en/data/exploreeconomies/thailand,/en/thailand/130/country-context,71801279,38491230,0.145296511,1.495591243,Thailand,https://www.cif.org/country/thailand,Thailand,Thailand,Thailand,67880083,,216,'764,,764,http://www.nso.go.th,https://forobs.jrc.ec.europa.eu/static/tmf/factsheets/Thailand.pdf,,ASI,,asia
TL,TLS,Timor-Leste,125.7577207,-8.89253807,242,Timor-Leste,Timor-Leste,https://data.worldbank.org/country/timor-leste?view=chart,Timor-Leste,Timor-Leste,https://www.ifad.org/en/web/operations/w/country/timor-leste,,,,https://www.adb.org/projects/country/tim,,,Timor,,Timor-Leste,Timor-Leste,,​Timor-Leste,Timor-Leste,Timor-Leste,Timor-Leste,Democratic Republic of Timor-Leste,Timor-Leste,Timor Leste,,,,COU-0106,Timor-Leste,Timor-Leste,https://ejatlas.org/country/timor-leste,https://archive.doingbusiness.org/en/data/exploreeconomies/timor-leste,,1360596,441595,1.428652831,2.612668423,Timor-Leste,,Timor-Leste,Timor-Leste,Timor-Leste,1806869,,176,'626,,626,http://dne.mof.gov.tl/index.htm,,https://lca.logcluster.org/timor-leste,ASI,,asia
TG,TGO,Togo,1.040907302,8.627337357,243,Togo,Togo,https://data.worldbank.org/country/togo?view=chart,Togo,Togo,https://www.ifad.org/en/web/operations/w/country/togo,,,,,,,Togo,https://www.iea.org/countries/togo,Togo,Togo,,Togo,Togo,Togo,Togo,Togo,Togo,Togo,,,,COU-0105,Togo,Togo,https://ejatlas.org/country/togo,https://archive.doingbusiness.org/en/data/exploreeconomies/togo,,9053799,4028035,2.291400607,3.57858644,Togo,,Togo,Togo,Togo,15478883,,217,'768,https://riceforafrica.net/country_site/togo/,768,http://www.stat-togo.org/,,https://lca.logcluster.org/fr/togo,AFR,,africa
TO,TON,Tonga,-175.2730886,-21.16769298,245,Tonga,Tonga,https://data.worldbank.org/country/tonga?view=chart,Tonga,Tonga,https://www.ifad.org/en/web/operations/w/country/tonga,,,,https://www.adb.org/projects/country/ton,,,Tonga,,Tonga,Tonga,,​Tonga,Tonga,Tonga,Tonga,Tonga,Tonga,Tonga,,,,COU-0107,Tonga,,,https://archive.doingbusiness.org/en/data/exploreeconomies/tonga,,107773,24960,0.8526313,1.002605487,Tonga,https://www.cif.org/country/tonga,Tonga,Tonga,,131225,,219,'776,,776,http://www.spc.int/prism/Country/TO/stats/,,https://lca.logcluster.org/tonga,OCE,,oceania
TT,TTO,Trinidad and Tobago,-61.25847823,10.4418211,246,Trinidad and Tobago,Trinidad,https://data.worldbank.org/country/trinidad-and-tobago?view=chart,Trinidad and Tobago,Trinidad and Tobago,,https://www.caf.com/en/countries/trinidad-and-tobago/,,https://www.iadb.org/en/countries/trinidad-and-tobago/overview,,https://www.caribank.org/countries-and-members/borrowing-members/trinidad-and-tobago,,Trinidad and Tobago,https://www.iea.org/countries/trinidad-and-tobago,Trinidad and Tobago,Trinidad and Tobago,,,Trinidad and Tobago,Trinidad and Tobago,Trinidad and Tobago,Trinidad and Tobago,Trinidad and Tobago,Trinidad and Tobago,Trinidad and Tobago,,,COU-0108,Trinidad and Tobago,Trinidad and Tobago,https://ejatlas.org/country/trinidad-and-tobago,https://archive.doingbusiness.org/en/data/exploreeconomies/trinidad-and-tobago,,1534937,820255,0.25394822,0.439364045,Trinidad and Tobago,,Trinidad and Tobago,Trinidad and Tobago,Trinidad and Tobago,1485139,,220,'780,,780,http://www.cso.gov.tt/,,,AME,,north-america
TN,TUN,Tunisia,8.875298685,33.79418907,248,Tunisia,Tunisia,https://data.worldbank.org/country/tunisia?view=chart,Tunisia,Tunisia,https://www.ifad.org/en/web/operations/w/country/tunisia,,,,,,,Tunisia,https://www.iea.org/countries/tunisia,Tunisia,Tunisia,Tunisia,,Tunisia,Tunisia,Tunisia,Tunisia,Tunisia,Tunisia,Tunisia,TUNISIA,https://openknowledge.worldbank.org/entities/publication/66d30db7-bc0f-46fd-89bd-d983914147cc,COU-0188,Tunisia,Tunisia,https://ejatlas.org/country/tunisia,https://archive.doingbusiness.org/en/data/exploreeconomies/tunisia,,12458223,8788529,0.822964272,1.291856787,Tunisia,https://www.cif.org/country/tunisia,Tunisia,Tunisia,Tunisia,14315779,https://techselector.com/tunisia-en/,222,'788,,788,http://www.ins.nat.tn,,https://lca.logcluster.org/tunisia,AFR,,africa
TR,TUR,Turkey,35.490761,38.95523551,249,Türkiye,Türkiye,https://data.worldbank.org/country/turkiye?view=chart,Turkiye,Turkey,https://www.ifad.org/en/web/operations/w/country/turkiye,,,,,,Turkiye,Turkey,https://www.iea.org/countries/turkiye,Turkiye,,,,,Turkiye,Turkey,Turkey,,Türkiye,,TURKEY,https://openknowledge.worldbank.org/handle/10986/37521,COU-0189,Turkey,Turkey,https://ejatlas.org/country/turkey,https://archive.doingbusiness.org/en/data/exploreeconomies/turkey,,85326000,66096079,0.40643037,0.977359938,Türkiye,https://www.cif.org/country/turkiye,Türkiye,"Türkiye, Republic of",Republic of Türkiye,95120416,,223,'792,,792,http://www.turkstat.gov.tr/,,https://lca.logcluster.org/turkiye,ASI,,asia
TM,TKM,Turkmenistan,57.74138984,38.964012,250,Turkmenistan,Turkmenistan,https://data.worldbank.org/country/turkmenistan?view=chart,Turkmenistan,Turkmenistan,,,,,https://www.adb.org/projects/country/tkm,,,Turkmenistan,https://www.iea.org/countries/turkmenistan,Turkmenistan,Turkmenistan,,,Turkmenistan,Turkmenistan,Turkmenistan,,Turkmenistan,Turkmenistan,Turkmenistan,TURKMENISTAN,,COU-0187,Turkmenistan,,,,,6516100,3518889,1.318175521,2.265175063,Turkmenistan,,Turkmenistan,Turkmenistan,,8263833,,213,'795,,795,,,https://lca.logcluster.org/turkmenistan,ASI,1,
TV,TUV,Tuvalu,177.301894,-6.113265037,252,Tuvalu,Tuvalu,https://data.worldbank.org/country/tuvalu?view=chart,Tuvalu,Tuvalu,,,,,https://www.adb.org/projects/country/tuv,,,Tuvalu,,Tuvalu,Tuvalu,,,Tuvalu,Tuvalu,Tuvalu,Tuvalu,Tuvalu,Tuvalu,,,,COU-0109,Tuvalu,,,,,11396,7549,0.739830748,1.831479573,Tuvalu,,Tuvalu,Tuvalu,,13211,,227,'798,,798,http://www.spc.int/prism/country/tv/stats/,,https://lca.logcluster.org/tuvalu,OCE,,oceania
UG,UGA,Uganda,32.72465224,1.374247706,253,Uganda,Uganda,https://data.worldbank.org/country/uganda?view=chart,Uganda,Uganda,https://www.ifad.org/en/web/operations/w/country/uganda,,,,,,,Uganda,https://www.iea.org/countries/uganda,Uganda,Uganda,Uganda,,Uganda,Uganda,Uganda,Uganda,Uganda,Uganda,Uganda,,,COU-0110,Uganda,Uganda,https://ejatlas.org/country/uganda,https://archive.doingbusiness.org/en/data/exploreeconomies/uganda,,48582334,13005977,2.781609605,5.094203179,Uganda,https://www.cif.org/country/uganda,Uganda,Uganda,Uganda,87622081,,226,'800,https://riceforafrica.net/country_site/uganda/,800,http://www.ubos.org/,https://forobs.jrc.ec.europa.eu/static/tmf/factsheets/Uganda.pdf,https://lca.logcluster.org/uganda,AFR,1,
UA,UKR,Ukraine,33.89704509,48.38488554,254,Ukraine,Ukraine,https://data.worldbank.org/country/ukraine?view=chart,Ukraine,Ukraine,,,,,,,,Ukraine,https://www.iea.org/countries/ukraine,Ukraine,,,,,Ukraine,Ukraine,Ukraine,,Ukraine,,UKRAINE,,COU-0191,Ukraine,Ukraine,https://ejatlas.org/country/ukraine,https://archive.doingbusiness.org/en/data/exploreeconomies/ukraine,/en/ukraine/114/country-context,37000000,25935150,-2.666824708,-2.415421145,Ukraine,https://www.cif.org/country/ukraine,Ukraine,Ukraine,Ukraine,35690236,,230,'804,,804,http://www.ukrstat.gov.ua/,,https://lca.logcluster.org/ukraine,EUR,,europe
AE,ARE,United Arab Emirates,55.14493663,24.35020274,255,United Arab Emirates,Emirates,https://data.worldbank.org/country/united-arab-emirates?view=chart,United Arab Emirates,United Arab Emirates,,,,,,,,United Arab Emirates,https://www.iea.org/countries/united-arab-emirates,United Arab Emirates,United Arab Emirates,,,United Arab Emirates,United Arab Emirates,United Arab Emirates,United Arab Emirates,United Arab Emirates,,,,,COU-0122,United Arab Emirates,United Arab Emirates,https://ejatlas.org/country/united-arab-emirates,https://archive.doingbusiness.org/en/data/exploreeconomies/united-arab-emirates,,9516871,8353814,0.799054784,1.068266217,United Arab Emirates,,,,United Arab Emirates,11449471,,225,'784,,784,http://www.fcsa.gov.ae/,,https://lca.logcluster.org/united-arab-emirates-rapid-lca,ASI,,asia
GB,GBR,United Kingdom of Great Britain & Northern Ireland,-1.921721941,54.31474113,,United Kingdom,United Kindom,https://data.worldbank.org/country/united-kingdom?view=chart,United Kingdom,United Kingdom,,,,,,,,United Kingdom,https://www.iea.org/countries/united-kingdom,United Kingdom of Great Britain and Northern Ireland,,,,,United Kingdom of Great Britain and Northern Ireland,United Kingdom,United Kingdom,,,,,,COU-0043,United Kingdom,United Kingdom,https://ejatlas.org/country/united-kingdom,https://archive.doingbusiness.org/en/data/exploreeconomies/united-kingdom,,68350000,57852807,0.82121204,1.109901623,United Kingdom of Great Britain and Northern Ireland,,,United Kingdom,United Kingdom,70703608,,229,'826,,826,http://www.statistics.gov.uk/;http://www.statistics.gov.uk/default.asp,,,EUR,,europe
US,USA,United States of America,-99.50581373,37.1407655,259,United States of America,United States,https://data.worldbank.org/country/united-states?view=chart,United States,United States of America,,,,,,,,United States,https://www.iea.org/countries/united-states,United States of America,,,,,United States of America,United States of America,,,,,,,COU-0112,United States of America,United States of America,https://ejatlas.org/country/united-states-of-america,https://archive.doingbusiness.org/en/data/exploreeconomies/united-states,,334914895,278977409,0.491924872,0.749164335,United States of America,,,United States,United States,367835520,,231,'840,,840,https://fedstats.sites.usa.gov/,,,AME,,north-america
UY,URY,Uruguay,-55.815131,-32.53262384,260,Uruguay,Uruguay,https://data.worldbank.org/country/uruguay?view=chart,Uruguay,Uruguay,https://www.ifad.org/en/web/operations/w/country/uruguay,https://www.caf.com/en/countries/uruguay/,,https://www.iadb.org/en/countries/uruguay/overview,,,,Uruguay,https://www.iea.org/countries/uruguay,Uruguay,Uruguay,Uruguay,​Uruguay,Uruguay,Uruguay,Uruguay,Uruguay,Uruguay,Uruguay,Uruguay,,,COU-0111,Uruguay,Uruguay,https://ejatlas.org/country/uruguay,https://archive.doingbusiness.org/en/data/exploreeconomies/uruguay,,3423108,3278345,0.009173371,0.095886999,Uruguay,,Uruguay,Uruguay,,3337143,,234,'858,,858,http://www.ine.gub.uy/,,https://lca.logcluster.org/uruguay-limited-port-assessment,AME,,south-america
UZ,UZB,Uzbekistan,63.39461152,41.38127852,261,Uzbekistan,Uzbekistan,https://data.worldbank.org/country/uzbekistan?view=chart,Uzbekistan,Uzbekistan,https://www.ifad.org/en/web/operations/w/country/uzbekistan,,,,https://www.adb.org/projects/country/uzb,,Uzbekistan,Uzbekistan,https://www.iea.org/countries/uzbekistan,Uzbekistan,Uzbekistan,Uzbekistan,,Uzbekistan,Uzbekistan,Uzbekistan,Uzbekistan,Uzbekistan,Uzbekistan,Uzbekistan,UZBEKISTAN,https://openknowledge.worldbank.org/entities/publication/686d0297-b311-4296-ab33-51d1859c6b32,COU-0192,Uzbekistan,Uzbekistan,https://ejatlas.org/country/uzbekistan,https://archive.doingbusiness.org/en/data/exploreeconomies/uzbekistan,,36412350,18399889,2.121215331,2.251913438,Uzbekistan,,Uzbekistan,,Uzbekistan,46812812,,235,'860,,860,http://www.stat.uz,,https://lca.logcluster.org/uzbekistan,ASI,1,
VU,VUT,Vanuatu,168.3649639,-17.67340845,262,Vanuatu,Vanuatu,https://data.worldbank.org/country/vanuatu?view=chart,Vanuatu,Vanuatu,,,,,https://www.adb.org/projects/country/van,,,Vanuatu,,Vanuatu,Vanuatu,Vanuatu,,Vanuatu,Vanuatu,Vanuatu,Vanuatu,Vanuatu,Vanuatu,,,,COU-0114,Vanuatu,,,https://archive.doingbusiness.org/en/data/exploreeconomies/vanuatu,,334506,86891,2.349006903,2.96677953,Vanuatu,https://www.cif.org/country/vanuatu,Vanuatu,Vanuatu,Vanuatu,578567,,155,'548,,548,http://www.spc.int/prism/Country/VU/stats/,,https://lca.logcluster.org/vanuatu,OCE,,oceania
VE,VEN,Venezuela,-65.41443963,6.4252105,263,Venezuela,Venezuela,https://data.worldbank.org/country/venezuela-rb?view=chart,"Venezuela, RB","Venezuela, Bolivarian Republic of",https://www.ifad.org/en/web/operations/w/country/venezuela,https://www.caf.com/en/countries/venezuela/,,https://www.iadb.org/en/countries/venezuela/overview,,,,Venezuela,https://www.iea.org/countries/venezuela,Venezuela (Bolivarian Republic of),Venezuela (Bolivarian Republic of),,,"Venezuela
(Bolivarian Republic of)",Venezuela (Bolivarian Republic of),Venezuela,Venezuela,Venezuela (Bolivarian Republic of),Venezuela,,,,COU-0193,"Venezuela, Bolivarian Republic of",Venezuela,https://ejatlas.org/country/venezuela,https://archive.doingbusiness.org/en/data/exploreeconomies/venezuela,,28838499,25504192,1.878953311,1.946821036,Venezuela (Bolivarian Republic of),,Venezuela,Venezuela,Venezuela,35937404,,236,'862,,862,http://www.ine.gov.ve/,https://forobs.jrc.ec.europa.eu/static/tmf/factsheets/Venezuela.pdf,,AME,,south-america
VN,VNM,Viet Nam,107.8650417,15.97382748,264,Viet Nam,Viet,https://data.worldbank.org/country/vietnam?view=chart,Vietnam,Viet Nam,https://www.ifad.org/en/web/operations/w/country/viet-nam,,,,https://www.adb.org/projects/country/vie,,Viet Nam,Vietnam,https://www.iea.org/countries/viet-nam,Viet Nam,Viet Nam,Viet Nam,,Viet Nam,Viet Nam,Viet Nam,Vietnam,Viet Nam,Viet Nam,Viet Nam,,https://openknowledge.worldbank.org/handle/10986/37618,COU-0194,Vietnam,Vietnam,https://ejatlas.org/country/vietnam,https://archive.doingbusiness.org/en/data/exploreeconomies/vietnam,/en/viet-nam/120/country-context,98858950,39029513,0.682172963,2.507234801,Viet Nam,https://www.cif.org/country/vietnam,Viet Nam,Vietnam,Vietnam,107012939,,237,'704,,704,http://www.gso.gov.vn,https://forobs.jrc.ec.europa.eu/static/tmf/factsheets/Viet Nam.pdf,https://lca.logcluster.org/viet-nam,ASI,,asia
YE,YEM,Yemen,47.47752693,15.79463023,269,Yemen,Yemen,https://data.worldbank.org/country/yemen-rep?view=chart,"Yemen, Rep.",Yemen,https://www.ifad.org/en/web/operations/w/country/yemen,,,,,,,Yemen,https://www.iea.org/countries/yemen,,Yemen,,,Yemen,Yemen,Yemen,Republic of Yemen,Yemen,Yemen,,,,COU-0116,Yemen,"Yemen, Rep.",https://ejatlas.org/country/yemen-rep,https://archive.doingbusiness.org/en/data/exploreeconomies/yemen,,34449825,13721710,2.210656009,3.838150822,Yemen,https://www.cif.org/country/yemen,Yemen,Yemen,,55296331,,249,'887,,887,,,https://lca.logcluster.org/yemen,ASI,,asia
ZM,ZMB,Zambia,25.45514815,-13.17310056,270,Zambia,Zambia,https://data.worldbank.org/country/zambia?view=chart,Zambia,Zambia,https://www.ifad.org/en/web/operations/w/country/zambia,,,,,,,Zambia,https://www.iea.org/countries/zambia,Zambia,Zambia,Zambia,,Zambia,Zambia,Zambia,Zambia,Zambia,Zambia,,,,COU-0118,Zambia,Zambia,https://ejatlas.org/country/zambia,https://archive.doingbusiness.org/en/data/exploreeconomies/zambia,,20569737,9530988,2.72052847,3.967076567,Zambia,https://www.cif.org/country/zambia,Zambia,Zambia,,37460435,,251,'894,https://riceforafrica.net/country_site/zambia/,894,http://www.zamstats.gov.zm/,,https://lca.logcluster.org/zambia,AFR,1,
ZW,ZWE,Zimbabwe,29.35276295,-19.01361354,271,Zimbabwe,Zimbabwe,https://data.worldbank.org/country/zimbabwe?view=chart,Zimbabwe,Zimbabwe,https://www.ifad.org/en/web/operations/w/country/zimbabwe,,,,,,,Zimbabwe,https://www.iea.org/countries/zimbabwe,Zimbabwe,Zimbabwe,Zimbabwe,,Zimbabwe,Zimbabwe,Zimbabwe,Zimbabwe,Zimbabwe,Zimbabwe,Zimbabwe,,https://openknowledge.worldbank.org/entities/publication/062f05a1-9676-4a12-ae9c-d6b3d3ba5242,COU-0119,Zimbabwe,Zimbabwe,https://ejatlas.org/country/zimbabwe,https://archive.doingbusiness.org/en/data/exploreeconomies/zimbabwe,,16665409,5419091,2.091100051,2.466992454,Zimbabwe,,Zimbabwe,Zimbabwe,Zimbabwe,26438589,,181,'716,,716,http://www.zimstat.co.zw/,,https://lca.logcluster.org/zimbabwe,AFR,1,